{
"type": "FeatureCollection",
"name": "cycle_schools",
"crs": { "type": "name", "properties": { "name": "urn:ogc:def:crs:OGC:1.3:CRS84" } },
"features": [
{ "type": "Feature", "properties": { "school": "Wellington High School and Com Ed Centre", "type": "Secondary (Year 9-15)", "roll": 1650.0, "suburb": "Mt Cook", "catchment_km": 3.0, "residents": 53318, "pct_all_ages": 15.0, "pct_confident": 25.5, "unconnected": 45310.0, "blocker_1": "Wallace Street", "blocker_2": "John Street", "blocker_3": "Victoria Street", "blocker_1_residents": 14609, "blocker_2_residents": 13558, "blocker_3_residents": 11228, "snap_m": 60, "unconnected_conf": 39701.0 }, "geometry": { "type": "Point", "coordinates": [ 174.7746920000003, -41.30072400093556 ] } },
{ "type": "Feature", "properties": { "school": "Wellington East Girls' College", "type": "Secondary (Year 9-15)", "roll": 1008.0, "suburb": "Mt Victoria", "catchment_km": 3.0, "residents": 49808, "pct_all_ages": 16.2, "pct_confident": 23.1, "unconnected": 41717.0, "blocker_1": "Mount Victoria Tunnel Shared Path", "blocker_2": "Paterson Street", "blocker_3": "Newtown to City Cycleway", "blocker_1_residents": 41004, "blocker_2_residents": 33513, "blocker_3_residents": 12745, "snap_m": 37, "unconnected_conf": 38319.0 }, "geometry": { "type": "Point", "coordinates": [ 174.78500700000032, -41.302357000935586 ] } },
{ "type": "Feature", "properties": { "school": "Wellington College", "type": "Secondary (Year 9-15)", "roll": 1943.0, "suburb": "Mt Victoria", "catchment_km": 3.0, "residents": 49698, "pct_all_ages": 16.5, "pct_confident": 31.0, "unconnected": 41514.0, "blocker_1": "Newtown to City Cycleway", "blocker_2": "Taranaki Street", "blocker_3": "Adelaide Road", "blocker_1_residents": 13403, "blocker_2_residents": 10682, "blocker_3_residents": 10279, "snap_m": 35, "unconnected_conf": 34302.0 }, "geometry": { "type": "Point", "coordinates": [ 174.781374000000255, -41.303611000935604 ] } },
{ "type": "Feature", "properties": { "school": "South Wellington Intermediate", "type": "Intermediate", "roll": 340.0, "suburb": "Berhampore", "catchment_km": 3.0, "residents": 43886, "pct_all_ages": 8.7, "pct_confident": 10.3, "unconnected": 40064.0, "blocker_1": "Te Wharepōuri Street", "blocker_2": "Russell Terrace", "blocker_3": "(unnamed tertiary)", "blocker_1_residents": 40064, "blocker_2_residents": 30451, "blocker_3_residents": 27627, "snap_m": 71, "unconnected_conf": 39366.0 }, "geometry": { "type": "Point", "coordinates": [ 174.780255000000238, -41.318187000935644 ] } },
{ "type": "Feature", "properties": { "school": "St Patrick's College (Kilbirnie)", "type": "Secondary (Year 9-15)", "roll": 723.0, "suburb": "Kilbirnie", "catchment_km": 3.0, "residents": 43350, "pct_all_ages": 12.6, "pct_confident": 26.8, "unconnected": 37901.0, "blocker_1": "Wellington Road", "blocker_2": "Crawford Road", "blocker_3": "Constable Street", "blocker_1_residents": 25830, "blocker_2_residents": 14980, "blocker_3_residents": 13049, "snap_m": 116, "unconnected_conf": 31752.0 }, "geometry": { "type": "Point", "coordinates": [ 174.795985000000286, -41.313833000935631 ] } },
{ "type": "Feature", "properties": { "school": "Evans Bay Intermediate", "type": "Intermediate", "roll": 334.0, "suburb": "Kilbirnie", "catchment_km": 3.0, "residents": 34551, "pct_all_ages": 1.5, "pct_confident": 49.5, "unconnected": 34040.0, "blocker_1": "Kemp Street", "blocker_2": "Wellington Road", "blocker_3": "Crawford Road", "blocker_1_residents": 27749, "blocker_2_residents": 16632, "blocker_3_residents": 11149, "snap_m": 23, "unconnected_conf": 17438.0 }, "geometry": { "type": "Point", "coordinates": [ 174.797044000000312, -41.315375000935646 ] } },
{ "type": "Feature", "properties": { "school": "St Mary's College (Wellington)", "type": "Secondary (Year 9-15)", "roll": 554.0, "suburb": "Thorndon", "catchment_km": 3.0, "residents": 32099, "pct_all_ages": 0.0, "pct_confident": 19.2, "unconnected": 32096.0, "blocker_1": "Hill Street", "blocker_2": "Lambton Quay", "blocker_3": "Whitmore Street", "blocker_1_residents": 32096, "blocker_2_residents": 15429, "blocker_3_residents": 15378, "snap_m": 15, "unconnected_conf": 25931.0 }, "geometry": { "type": "Point", "coordinates": [ 174.775180000000233, -41.275812000935417 ] } },
{ "type": "Feature", "properties": { "school": "Mt Cook School (Wellington)", "type": "Full Primary", "roll": 303.0, "suburb": "Te Aro", "catchment_km": 2.0, "residents": 31467, "pct_all_ages": 0.2, "pct_confident": 0.2, "unconnected": 31419.0, "blocker_1": "Tory Street", "blocker_2": "(unnamed service)", "blocker_3": "Taranaki Street", "blocker_1_residents": 31419, "blocker_2_residents": 12620, "blocker_3_residents": 10500, "snap_m": 20, "unconnected_conf": 31419.0 }, "geometry": { "type": "Point", "coordinates": [ 174.778693000000317, -41.297617000935524 ] } },
{ "type": "Feature", "properties": { "school": "Wellington Hills Christian College", "type": "Composite", "roll": 175.0, "suburb": "Johnsonville", "catchment_km": 3.0, "residents": 28849, "pct_all_ages": 0.1, "pct_confident": 0.1, "unconnected": 28814.0, "blocker_1": "Broderick Road", "blocker_2": "Johnsonville Road", "blocker_3": "Moorefield Road", "blocker_1_residents": 26989, "blocker_2_residents": 17996, "blocker_3_residents": 13753, "snap_m": 29, "unconnected_conf": 28814.0 }, "geometry": { "type": "Point", "coordinates": [ 174.806183000000345, -41.224871000935288 ] } },
{ "type": "Feature", "properties": { "school": "Wellington Girls' College", "type": "Secondary (Year 9-15)", "roll": 1427.0, "suburb": "Pipitea", "catchment_km": 3.0, "residents": 28258, "pct_all_ages": 6.5, "pct_confident": 20.4, "unconnected": 26409.0, "blocker_1": "Pipitea Street", "blocker_2": "Lambton Quay", "blocker_3": "Whitmore Street", "blocker_1_residents": 19411, "blocker_2_residents": 13006, "blocker_3_residents": 12955, "snap_m": 43, "unconnected_conf": 22499.0 }, "geometry": { "type": "Point", "coordinates": [ 174.780673000000206, -41.275422000935464 ] } },
{ "type": "Feature", "properties": { "school": "St Catherines College (Kilbirnie)", "type": "Secondary (Year 9-15)", "roll": 208.0, "suburb": "Kilbirnie", "catchment_km": 3.0, "residents": 30686, "pct_all_ages": 17.4, "pct_confident": 51.1, "unconnected": 25357.0, "blocker_1": "Bourke Street", "blocker_2": "Rodrigo Road", "blocker_3": "Childers Terrace", "blocker_1_residents": 25357, "blocker_2_residents": 25357, "blocker_3_residents": 25266, "snap_m": 26, "unconnected_conf": 14995.0 }, "geometry": { "type": "Point", "coordinates": [ 174.792481000000265, -41.318044000935615 ] } },
{ "type": "Feature", "properties": { "school": "Newtown School", "type": "Contributing", "roll": 319.0, "suburb": "Newtown", "catchment_km": 2.0, "residents": 26101, "pct_all_ages": 5.6, "pct_confident": 23.2, "unconnected": 24648.0, "blocker_1": "Riddiford Street", "blocker_2": "Adelaide Road", "blocker_3": "John Street", "blocker_1_residents": 11301, "blocker_2_residents": 6919, "blocker_3_residents": 5568, "snap_m": 41, "unconnected_conf": 20058.0 }, "geometry": { "type": "Point", "coordinates": [ 174.779604000000205, -41.311015000935569 ] } },
{ "type": "Feature", "properties": { "school": "Onslow College", "type": "Secondary (Year 9-15)", "roll": 1193.0, "suburb": "Johnsonville", "catchment_km": 3.0, "residents": 23936, "pct_all_ages": 0.0, "pct_confident": 0.0, "unconnected": 23932.0, "blocker_1": "Burma Road", "blocker_2": "(unnamed service)", "blocker_3": "(unnamed secondary)", "blocker_1_residents": 23930, "blocker_2_residents": 7037, "blocker_3_residents": 6108, "snap_m": 49, "unconnected_conf": 23932.0 }, "geometry": { "type": "Point", "coordinates": [ 174.797672000000318, -41.231916000935279 ] } },
{ "type": "Feature", "properties": { "school": "St Mark's Church School (Mt Victoria)", "type": "Full Primary", "roll": 142.0, "suburb": "Mt Victoria", "catchment_km": 2.0, "residents": 30393, "pct_all_ages": 21.8, "pct_confident": 38.2, "unconnected": 23778.0, "blocker_1": "Taranaki Street", "blocker_2": "Tory Street", "blocker_3": "(unnamed service)", "blocker_1_residents": 6525, "blocker_2_residents": 5999, "blocker_3_residents": 5264, "snap_m": 26, "unconnected_conf": 18783.0 }, "geometry": { "type": "Point", "coordinates": [ 174.781597000000289, -41.301080000935571 ] } },
{ "type": "Feature", "properties": { "school": "Raroa Normal Intermediate", "type": "Intermediate", "roll": 526.0, "suburb": "Johnsonville", "catchment_km": 3.0, "residents": 24183, "pct_all_ages": 1.7, "pct_confident": 4.2, "unconnected": 23771.0, "blocker_1": "Haumia Street", "blocker_2": "(unnamed secondary)", "blocker_3": "Moorefield Road", "blocker_1_residents": 23771, "blocker_2_residents": 21590, "blocker_3_residents": 8412, "snap_m": 28, "unconnected_conf": 23179.0 }, "geometry": { "type": "Point", "coordinates": [ 174.800392000000215, -41.231078000935298 ] } },
{ "type": "Feature", "properties": { "school": "St Annes School (Newtown)", "type": "Full Primary", "roll": 218.0, "suburb": "Newtown", "catchment_km": 2.0, "residents": 23596, "pct_all_ages": 0.2, "pct_confident": 0.2, "unconnected": 23541.0, "blocker_1": "Mein Street", "blocker_2": "Daniell Street", "blocker_3": "Riddiford Street", "blocker_1_residents": 14027, "blocker_2_residents": 9514, "blocker_3_residents": 5618, "snap_m": 38, "unconnected_conf": 23541.0 }, "geometry": { "type": "Point", "coordinates": [ 174.781642000000289, -41.311289000935652 ] } },
{ "type": "Feature", "properties": { "school": "Scots College", "type": "Composite", "roll": 1165.0, "suburb": "Strathmore Park", "catchment_km": 3.0, "residents": 22326, "pct_all_ages": 0.4, "pct_confident": 3.7, "unconnected": 22231.0, "blocker_1": "Monorgan Road", "blocker_2": "Broadway", "blocker_3": "(unnamed secondary)", "blocker_1_residents": 22231, "blocker_2_residents": 16151, "blocker_3_residents": 7885, "snap_m": 29, "unconnected_conf": 21494.0 }, "geometry": { "type": "Point", "coordinates": [ 174.81844100000032, -41.326932000935678 ] } },
{ "type": "Feature", "properties": { "school": "Newlands Intermediate", "type": "Intermediate", "roll": 516.0, "suburb": "Paparangi", "catchment_km": 3.0, "residents": 21900, "pct_all_ages": 0.6, "pct_confident": 0.6, "unconnected": 21770.0, "blocker_1": "Bracken Road", "blocker_2": "(unnamed tertiary)", "blocker_3": "Stewart Drive", "blocker_1_residents": 21770, "blocker_2_residents": 8869, "blocker_3_residents": 8564, "snap_m": 25, "unconnected_conf": 21770.0 }, "geometry": { "type": "Point", "coordinates": [ 174.824028000000311, -41.219122000935236 ] } },
{ "type": "Feature", "properties": { "school": "Clyde Quay School", "type": "Full Primary", "roll": 222.0, "suburb": "Mt Victoria", "catchment_km": 2.0, "residents": 29161, "pct_all_ages": 27.0, "pct_confident": 43.2, "unconnected": 21276.0, "blocker_1": "Taranaki Street", "blocker_2": "Lorne Street", "blocker_3": "Ebor Street", "blocker_1_residents": 12776, "blocker_2_residents": 11165, "blocker_3_residents": 10939, "snap_m": 31, "unconnected_conf": 16571.0 }, "geometry": { "type": "Point", "coordinates": [ 174.784500000000264, -41.296017000935549 ] } },
{ "type": "Feature", "properties": { "school": "Te Aro School", "type": "Full Primary", "roll": 219.0, "suburb": "Te Aro", "catchment_km": 2.0, "residents": 26864, "pct_all_ages": 21.0, "pct_confident": 40.7, "unconnected": 21225.0, "blocker_1": "The Terrace", "blocker_2": "Abel Smith Street", "blocker_3": "Ghuznee Street", "blocker_1_residents": 21225, "blocker_2_residents": 9450, "blocker_3_residents": 7512, "snap_m": 46, "unconnected_conf": 15940.0 }, "geometry": { "type": "Point", "coordinates": [ 174.769203000000203, -41.2933320009355 ] } },
{ "type": "Feature", "properties": { "school": "Rongotai College", "type": "Secondary (Year 9-15)", "roll": 709.0, "suburb": "Rongotai", "catchment_km": 3.0, "residents": 25442, "pct_all_ages": 19.3, "pct_confident": 56.8, "unconnected": 20528.0, "blocker_1": "Coutts Street", "blocker_2": "(unnamed cycleway)", "blocker_3": "Queens Drive", "blocker_1_residents": 8290, "blocker_2_residents": 7570, "blocker_3_residents": 7134, "snap_m": 22, "unconnected_conf": 10988.0 }, "geometry": { "type": "Point", "coordinates": [ 174.800660000000249, -41.321848000935681 ] } },
{ "type": "Feature", "properties": { "school": "Samuel Marsden Collegiate School", "type": "Composite", "roll": 396.0, "suburb": "Karori", "catchment_km": 3.0, "residents": 20434, "pct_all_ages": 0.2, "pct_confident": 26.9, "unconnected": 20385.0, "blocker_1": "Marsden Avenue", "blocker_2": "Lancaster Street", "blocker_3": "Karori Road", "blocker_1_residents": 20385, "blocker_2_residents": 20302, "blocker_3_residents": 13661, "snap_m": 29, "unconnected_conf": 14935.0 }, "geometry": { "type": "Point", "coordinates": [ 174.744353000000189, -41.283945000935496 ] } },
{ "type": "Feature", "properties": { "school": "Newlands College", "type": "Secondary (Year 9-15)", "roll": 1264.0, "suburb": "Paparangi", "catchment_km": 3.0, "residents": 20156, "pct_all_ages": 0.6, "pct_confident": 0.6, "unconnected": 20026.0, "blocker_1": "Bracken Road", "blocker_2": "(unnamed tertiary)", "blocker_3": "Stewart Drive", "blocker_1_residents": 20026, "blocker_2_residents": 8577, "blocker_3_residents": 7175, "snap_m": 62, "unconnected_conf": 20026.0 }, "geometry": { "type": "Point", "coordinates": [ 174.822760000000329, -41.218096000935248 ] } },
{ "type": "Feature", "properties": { "school": "Altum Academy", "type": "Secondary (Year 7-15)", "roll": null, "suburb": "Northland", "catchment_km": 3.0, "residents": 19632, "pct_all_ages": 0.0, "pct_confident": 0.0, "unconnected": 19632.0, "blocker_1": "Curtis Street", "blocker_2": "Whitehead Road", "blocker_3": "Old Karori Road", "blocker_1_residents": 14713, "blocker_2_residents": 7559, "blocker_3_residents": 7548, "snap_m": 103, "unconnected_conf": 19632.0 }, "geometry": { "type": "Point", "coordinates": [ 174.756559000000266, -41.275091000935447 ] } },
{ "type": "Feature", "properties": { "school": "Queen Margaret College", "type": "Composite", "roll": 764.0, "suburb": "Thorndon", "catchment_km": 3.0, "residents": 18890, "pct_all_ages": 0.1, "pct_confident": 19.5, "unconnected": 18864.0, "blocker_1": "Hobson Street", "blocker_2": "Tinakori Road", "blocker_3": "Davis Street", "blocker_1_residents": 18864, "blocker_2_residents": 7672, "blocker_3_residents": 6757, "snap_m": 86, "unconnected_conf": 15209.0 }, "geometry": { "type": "Point", "coordinates": [ 174.780666000000195, -41.272425000935435 ] } },
{ "type": "Feature", "properties": { "school": "Clifton Terrace Model School", "type": "Full Primary", "roll": 76.0, "suburb": "Kelburn", "catchment_km": 2.0, "residents": 18097, "pct_all_ages": 0.0, "pct_confident": 13.7, "unconnected": 18097.0, "blocker_1": "Talavera Terrace", "blocker_2": "Everton Terrace", "blocker_3": "Boulcott Street", "blocker_1_residents": 18097, "blocker_2_residents": 18063, "blocker_3_residents": 10222, "snap_m": 95, "unconnected_conf": 15620.0 }, "geometry": { "type": "Point", "coordinates": [ 174.772854000000223, -41.283300000935519 ] } },
{ "type": "Feature", "properties": { "school": "Johnsonville School", "type": "Contributing", "roll": 349.0, "suburb": "Johnsonville", "catchment_km": 2.0, "residents": 18725, "pct_all_ages": 3.8, "pct_confident": 29.1, "unconnected": 18009.0, "blocker_1": "Ironside Road", "blocker_2": "(unnamed secondary)", "blocker_3": "Helston Road", "blocker_1_residents": 12559, "blocker_2_residents": 6770, "blocker_3_residents": 5506, "snap_m": 85, "unconnected_conf": 13282.0 }, "geometry": { "type": "Point", "coordinates": [ 174.805557000000277, -41.219321000935182 ] } },
{ "type": "Feature", "properties": { "school": "Brooklyn School (Wellington)", "type": "Full Primary", "roll": 376.0, "suburb": "Brooklyn", "catchment_km": 2.0, "residents": 18310, "pct_all_ages": 8.5, "pct_confident": 16.6, "unconnected": 16758.0, "blocker_1": "Washington Avenue", "blocker_2": "Bell Road", "blocker_3": "Heaton Terrace", "blocker_1_residents": 12356, "blocker_2_residents": 5317, "blocker_3_residents": 5317, "snap_m": 42, "unconnected_conf": 15272.0 }, "geometry": { "type": "Point", "coordinates": [ 174.766454000000209, -41.306172000935625 ] } },
{ "type": "Feature", "properties": { "school": "Berhampore School", "type": "Contributing", "roll": 273.0, "suburb": "Berhampore", "catchment_km": 2.0, "residents": 16750, "pct_all_ages": 4.7, "pct_confident": 26.0, "unconnected": 15960.0, "blocker_1": "Chilka Street", "blocker_2": "Adelaide Road", "blocker_3": "Luxford Street", "blocker_1_residents": 15960, "blocker_2_residents": 12681, "blocker_3_residents": 5780, "snap_m": 54, "unconnected_conf": 12399.0 }, "geometry": { "type": "Point", "coordinates": [ 174.773549000000287, -41.321097000935652 ] } },
{ "type": "Feature", "properties": { "school": "Kilbirnie School", "type": "Contributing", "roll": 212.0, "suburb": "Hataitai", "catchment_km": 2.0, "residents": 19315, "pct_all_ages": 17.9, "pct_confident": 30.4, "unconnected": 15863.0, "blocker_1": "Wellington Road", "blocker_2": "Crawford Road", "blocker_3": "Ruahine Street", "blocker_1_residents": 7372, "blocker_2_residents": 6563, "blocker_3_residents": 6398, "snap_m": 55, "unconnected_conf": 13451.0 }, "geometry": { "type": "Point", "coordinates": [ 174.793705000000273, -41.308635000935588 ] } },
{ "type": "Feature", "properties": { "school": "St Brigids School (Johnsonville)", "type": "Full Primary", "roll": 302.0, "suburb": "Johnsonville", "catchment_km": 2.0, "residents": 15499, "pct_all_ages": 2.2, "pct_confident": 30.7, "unconnected": 15160.0, "blocker_1": "Frankmoore Avenue", "blocker_2": "Phillip Street", "blocker_3": "Broderick Road", "blocker_1_residents": 7679, "blocker_2_residents": 6082, "blocker_3_residents": 5960, "snap_m": 76, "unconnected_conf": 10740.0 }, "geometry": { "type": "Point", "coordinates": [ 174.80190600000023, -41.222341000935245 ] } },
{ "type": "Feature", "properties": { "school": "TKKM o Nga Mokopuna", "type": "Composite", "roll": 178.0, "suburb": "Seatoun", "catchment_km": 3.0, "residents": 15823, "pct_all_ages": 10.0, "pct_confident": 23.3, "unconnected": 14248.0, "blocker_1": "Dundas Street", "blocker_2": "Falkirk Avenue", "blocker_3": "Broadway", "blocker_1_residents": 10346, "blocker_2_residents": 10329, "blocker_3_residents": 8550, "snap_m": 22, "unconnected_conf": 12137.0 }, "geometry": { "type": "Point", "coordinates": [ 174.831726000000288, -41.320703000935659 ] } },
{ "type": "Feature", "properties": { "school": "Tawa College", "type": "Secondary (Year 9-15)", "roll": 1043.0, "suburb": "Tawa", "catchment_km": 3.0, "residents": 13780, "pct_all_ages": 0.0, "pct_confident": 0.0, "unconnected": 13779.0, "blocker_1": "Duncan Street", "blocker_2": "Main Road", "blocker_3": "(unnamed secondary)", "blocker_1_residents": 13779, "blocker_2_residents": 7676, "blocker_3_residents": 6526, "snap_m": 41, "unconnected_conf": 13779.0 }, "geometry": { "type": "Point", "coordinates": [ 174.830508000000407, -41.164996000935048 ] } },
{ "type": "Feature", "properties": { "school": "Rewa Rewa School", "type": "Contributing", "roll": 144.0, "suburb": "Paparangi", "catchment_km": 2.0, "residents": 14411, "pct_all_ages": 7.3, "pct_confident": 31.8, "unconnected": 13353.0, "blocker_1": "Bracken Road", "blocker_2": "Trebann Street", "blocker_3": "Stewart Drive", "blocker_1_residents": 7472, "blocker_2_residents": 6022, "blocker_3_residents": 5721, "snap_m": 31, "unconnected_conf": 9834.0 }, "geometry": { "type": "Point", "coordinates": [ 174.818949000000288, -41.220507000935235 ] } },
{ "type": "Feature", "properties": { "school": "Newlands School", "type": "Contributing", "roll": 307.0, "suburb": "Newlands", "catchment_km": 2.0, "residents": 13120, "pct_all_ages": 1.7, "pct_confident": 25.0, "unconnected": 12901.0, "blocker_1": "Batchelor Street", "blocker_2": "Atkinson Street", "blocker_3": "Stewart Drive", "blocker_1_residents": 12843, "blocker_2_residents": 11112, "blocker_3_residents": 10913, "snap_m": 97, "unconnected_conf": 9846.0 }, "geometry": { "type": "Point", "coordinates": [ 174.820918000000347, -41.224718000935255 ] } },
{ "type": "Feature", "properties": { "school": "Tawa Intermediate", "type": "Intermediate", "roll": 455.0, "suburb": "Tawa", "catchment_km": 3.0, "residents": 12656, "pct_all_ages": 0.8, "pct_confident": 11.7, "unconnected": 12554.0, "blocker_1": "Ranui Terrace", "blocker_2": "McLellan Street", "blocker_3": "(unnamed tertiary)", "blocker_1_residents": 12554, "blocker_2_residents": 10720, "blocker_3_residents": 10621, "snap_m": 21, "unconnected_conf": 11179.0 }, "geometry": { "type": "Point", "coordinates": [ 174.832994000000298, -41.163939000935031 ] } },
{ "type": "Feature", "properties": { "school": "West Park School", "type": "Contributing", "roll": 254.0, "suburb": "Johnsonville", "catchment_km": 2.0, "residents": 12544, "pct_all_ages": 1.4, "pct_confident": 1.4, "unconnected": 12367.0, "blocker_1": "Broderick Road", "blocker_2": "(unnamed tertiary)", "blocker_3": "Bannister Avenue", "blocker_1_residents": 10449, "blocker_2_residents": 2981, "blocker_3_residents": 2354, "snap_m": 33, "unconnected_conf": 12367.0 }, "geometry": { "type": "Point", "coordinates": [ 174.797294000000221, -41.224691000935223 ] } },
{ "type": "Feature", "properties": { "school": "Kahurangi School", "type": "Full Primary", "roll": 259.0, "suburb": "Strathmore Park", "catchment_km": 2.0, "residents": 12544, "pct_all_ages": 1.6, "pct_confident": 33.8, "unconnected": 12344.0, "blocker_1": "Strathmore Avenue", "blocker_2": "(unnamed secondary)", "blocker_3": "Broadway", "blocker_1_residents": 8211, "blocker_2_residents": 6485, "blocker_3_residents": 5726, "snap_m": 105, "unconnected_conf": 8308.0 }, "geometry": { "type": "Point", "coordinates": [ 174.820902000000331, -41.328369000935638 ] } },
{ "type": "Feature", "properties": { "school": "St Patrick's School (Kilbirnie)", "type": "Full Primary", "roll": 128.0, "suburb": "Kilbirnie", "catchment_km": 2.0, "residents": 16915, "pct_all_ages": 27.2, "pct_confident": 66.6, "unconnected": 12315.0, "blocker_1": "Kilbirnie Crescent", "blocker_2": "Duncan Terrace", "blocker_3": "Constable Street", "blocker_1_residents": 7400, "blocker_2_residents": 5147, "blocker_3_residents": 3088, "snap_m": 56, "unconnected_conf": 5648.0 }, "geometry": { "type": "Point", "coordinates": [ 174.79434500000022, -41.317200000935642 ] } },
{ "type": "Feature", "properties": { "school": "Kelburn Normal School", "type": "Full Primary", "roll": 275.0, "suburb": "Kelburn", "catchment_km": 2.0, "residents": 12233, "pct_all_ages": 6.6, "pct_confident": 23.8, "unconnected": 11427.0, "blocker_1": "Upland Road", "blocker_2": "(unnamed secondary)", "blocker_3": "Kelburn Viaduct", "blocker_1_residents": 11427, "blocker_2_residents": 10289, "blocker_3_residents": 4949, "snap_m": 19, "unconnected_conf": 9318.0 }, "geometry": { "type": "Point", "coordinates": [ 174.761649000000261, -41.287277000935553 ] } },
{ "type": "Feature", "properties": { "school": "St Teresa's School (Karori)", "type": "Full Primary", "roll": 122.0, "suburb": "Karori", "catchment_km": 2.0, "residents": 13496, "pct_all_ages": 15.6, "pct_confident": 57.3, "unconnected": 11397.0, "blocker_1": "Karori Road", "blocker_2": "Campbell Street", "blocker_3": "Allington Road", "blocker_1_residents": 8539, "blocker_2_residents": 1922, "blocker_3_residents": 1375, "snap_m": 66, "unconnected_conf": 5761.0 }, "geometry": { "type": "Point", "coordinates": [ 174.734099000000185, -41.285880000935471 ] } },
{ "type": "Feature", "properties": { "school": "Miramar Central School", "type": "Contributing", "roll": 171.0, "suburb": "Miramar", "catchment_km": 2.0, "residents": 11996, "pct_all_ages": 7.3, "pct_confident": 15.0, "unconnected": 11124.0, "blocker_1": "Park Road", "blocker_2": "(unnamed secondary)", "blocker_3": "Miramar Avenue", "blocker_1_residents": 10677, "blocker_2_residents": 5425, "blocker_3_residents": 2713, "snap_m": 47, "unconnected_conf": 10193.0 }, "geometry": { "type": "Point", "coordinates": [ 174.818705000000278, -41.314335000935621 ] } },
{ "type": "Feature", "properties": { "school": "Bellevue School (Newlands)", "type": "Contributing", "roll": 244.0, "suburb": "Newlands", "catchment_km": 2.0, "residents": 11128, "pct_all_ages": 0.3, "pct_confident": 0.5, "unconnected": 11092.0, "blocker_1": "(unnamed path)", "blocker_2": "Pukehuia (Newlands) Park Loop Track", "blocker_3": "Newlands Road", "blocker_1_residents": 11092, "blocker_2_residents": 11092, "blocker_3_residents": 11072, "snap_m": 54, "unconnected_conf": 11072.0 }, "geometry": { "type": "Point", "coordinates": [ 174.825210000000368, -41.225623000935229 ] } },
{ "type": "Feature", "properties": { "school": "Worser Bay School", "type": "Contributing", "roll": 111.0, "suburb": "Seatoun", "catchment_km": 2.0, "residents": 11007, "pct_all_ages": 0.3, "pct_confident": 27.6, "unconnected": 10974.0, "blocker_1": "Awa Road", "blocker_2": "Darlington Road", "blocker_3": "Para Street", "blocker_1_residents": 8545, "blocker_2_residents": 6408, "blocker_3_residents": 4118, "snap_m": 78, "unconnected_conf": 7965.0 }, "geometry": { "type": "Point", "coordinates": [ 174.827109000000377, -41.312846000935579 ] } },
{ "type": "Feature", "properties": { "school": "Holy Cross School (Miramar)", "type": "Full Primary", "roll": 175.0, "suburb": "Miramar", "catchment_km": 2.0, "residents": 12649, "pct_all_ages": 14.1, "pct_confident": 26.6, "unconnected": 10869.0, "blocker_1": "Para Street", "blocker_2": "Miramar Avenue", "blocker_3": "(unnamed secondary)", "blocker_1_residents": 10869, "blocker_2_residents": 5495, "blocker_3_residents": 3047, "snap_m": 67, "unconnected_conf": 9284.0 }, "geometry": { "type": "Point", "coordinates": [ 174.820050000000293, -41.317091000935626 ] } },
{ "type": "Feature", "properties": { "school": "Karori Normal School", "type": "Full Primary", "roll": 609.0, "suburb": "Karori", "catchment_km": 2.0, "residents": 12260, "pct_all_ages": 12.4, "pct_confident": 32.0, "unconnected": 10736.0, "blocker_1": "Karori Road", "blocker_2": "Cooper Street", "blocker_3": "Vera Street", "blocker_1_residents": 6092, "blocker_2_residents": 2061, "blocker_3_residents": 1931, "snap_m": 18, "unconnected_conf": 8336.0 }, "geometry": { "type": "Point", "coordinates": [ 174.741874000000251, -41.28407300093555 ] } },
{ "type": "Feature", "properties": { "school": "Khandallah School", "type": "Contributing", "roll": 299.0, "suburb": "Khandallah", "catchment_km": 2.0, "residents": 10508, "pct_all_ages": 4.7, "pct_confident": 8.2, "unconnected": 10010.0, "blocker_1": "(unnamed path)", "blocker_2": "Clark Street", "blocker_3": "Box Hill", "blocker_1_residents": 10010, "blocker_2_residents": 10010, "blocker_3_residents": 8138, "snap_m": 33, "unconnected_conf": 9642.0 }, "geometry": { "type": "Point", "coordinates": [ 174.789742000000246, -41.244029000935349 ] } },
{ "type": "Feature", "properties": { "school": "Churton Park School", "type": "Contributing", "roll": 320.0, "suburb": "Churton Park", "catchment_km": 2.0, "residents": 9908, "pct_all_ages": 0.1, "pct_confident": 76.4, "unconnected": 9894.0, "blocker_1": "Churton Drive", "blocker_2": "Halswater Drive", "blocker_3": "Chisbury Street", "blocker_1_residents": 9894, "blocker_2_residents": 5348, "blocker_3_residents": 3707, "snap_m": 17, "unconnected_conf": 2339.0 }, "geometry": { "type": "Point", "coordinates": [ 174.808278000000342, -41.208470000935222 ] } },
{ "type": "Feature", "properties": { "school": "Tawa School", "type": "Full Primary", "roll": 424.0, "suburb": "Tawa", "catchment_km": 2.0, "residents": 9716, "pct_all_ages": 2.2, "pct_confident": 3.2, "unconnected": 9502.0, "blocker_1": "Oxford Street", "blocker_2": "Main Road", "blocker_3": "(unnamed secondary)", "blocker_1_residents": 9502, "blocker_2_residents": 8282, "blocker_3_residents": 6827, "snap_m": 25, "unconnected_conf": 9405.0 }, "geometry": { "type": "Point", "coordinates": [ 174.825895000000372, -41.173149000935034 ] } },
{ "type": "Feature", "properties": { "school": "Ngaio School", "type": "Contributing", "roll": 273.0, "suburb": "Ngaio", "catchment_km": 2.0, "residents": 9289, "pct_all_ages": 0.0, "pct_confident": 43.4, "unconnected": 9289.0, "blocker_1": "Aplin Terrace", "blocker_2": "Bombay Street", "blocker_3": "(unnamed residential)", "blocker_1_residents": 5644, "blocker_2_residents": 5499, "blocker_3_residents": 5416, "snap_m": 28, "unconnected_conf": 5257.0 }, "geometry": { "type": "Point", "coordinates": [ 174.776172000000315, -41.249282000935359 ] } },
{ "type": "Feature", "properties": { "school": "Sacred Heart Cathedral School", "type": "Full Primary", "roll": 238.0, "suburb": "Thorndon", "catchment_km": 2.0, "residents": 9119, "pct_all_ages": 0.0, "pct_confident": 46.1, "unconnected": 9117.0, "blocker_1": "Hill Street", "blocker_2": "Tinakori Road", "blocker_3": "The Terrace", "blocker_1_residents": 9117, "blocker_2_residents": 3211, "blocker_3_residents": 3125, "snap_m": 36, "unconnected_conf": 4918.0 }, "geometry": { "type": "Point", "coordinates": [ 174.775730000000209, -41.275814000935462 ] } },
{ "type": "Feature", "properties": { "school": "St Benedict's School (Khandallah)", "type": "Full Primary", "roll": 205.0, "suburb": "Khandallah", "catchment_km": 2.0, "residents": 9771, "pct_all_ages": 12.2, "pct_confident": 25.6, "unconnected": 8583.0, "blocker_1": "Nicholson Road", "blocker_2": "Clutha Avenue", "blocker_3": "Cockayne Road", "blocker_1_residents": 5115, "blocker_2_residents": 3206, "blocker_3_residents": 3148, "snap_m": 15, "unconnected_conf": 7274.0 }, "geometry": { "type": "Point", "coordinates": [ 174.791430000000304, -41.249506000935341 ] } },
{ "type": "Feature", "properties": { "school": "Karori West Normal School", "type": "Full Primary", "roll": 439.0, "suburb": "Karori", "catchment_km": 2.0, "residents": 8414, "pct_all_ages": 0.9, "pct_confident": 0.9, "unconnected": 8336.0, "blocker_1": "Karori Road", "blocker_2": "Tringham Street", "blocker_3": "Ranelagh Street", "blocker_1_residents": 6805, "blocker_2_residents": 1633, "blocker_3_residents": 1497, "snap_m": 61, "unconnected_conf": 8336.0 }, "geometry": { "type": "Point", "coordinates": [ 174.722326000000152, -41.2894540009355 ] } },
{ "type": "Feature", "properties": { "school": "Paparangi School", "type": "Contributing", "roll": 236.0, "suburb": "Paparangi", "catchment_km": 2.0, "residents": 9013, "pct_all_ages": 9.3, "pct_confident": 38.2, "unconnected": 8178.0, "blocker_1": "Beazley Avenue", "blocker_2": "Bracken Road", "blocker_3": "(unnamed tertiary)", "blocker_1_residents": 6731, "blocker_2_residents": 4500, "blocker_3_residents": 2038, "snap_m": 29, "unconnected_conf": 5571.0 }, "geometry": { "type": "Point", "coordinates": [ 174.819394000000301, -41.214565000935252 ] } },
{ "type": "Feature", "properties": { "school": "Island Bay School", "type": "Contributing", "roll": 341.0, "suburb": "Island Bay", "catchment_km": 2.0, "residents": 10621, "pct_all_ages": 23.3, "pct_confident": 36.6, "unconnected": 8149.0, "blocker_1": "Clyde Street", "blocker_2": "Avon Street", "blocker_3": "(unnamed secondary)", "blocker_1_residents": 7452, "blocker_2_residents": 4126, "blocker_3_residents": 2870, "snap_m": 31, "unconnected_conf": 6737.0 }, "geometry": { "type": "Point", "coordinates": [ 174.774940000000186, -41.335665000935727 ] } },
{ "type": "Feature", "properties": { "school": "Thorndon School", "type": "Full Primary", "roll": 288.0, "suburb": "Thorndon", "catchment_km": 2.0, "residents": 8147, "pct_all_ages": 5.1, "pct_confident": 38.1, "unconnected": 7732.0, "blocker_1": "Murphy Street", "blocker_2": "Tinakori Road", "blocker_3": "The Terrace", "blocker_1_residents": 2957, "blocker_2_residents": 2131, "blocker_3_residents": 2040, "snap_m": 11, "unconnected_conf": 5041.0 }, "geometry": { "type": "Point", "coordinates": [ 174.779963000000294, -41.273914000935484 ] } },
{ "type": "Feature", "properties": { "school": "St Anthony's School (Seatoun)", "type": "Full Primary", "roll": 34.0, "suburb": "Seatoun", "catchment_km": 2.0, "residents": 8975, "pct_all_ages": 14.8, "pct_confident": 39.7, "unconnected": 7650.0, "blocker_1": "Ludlam Street", "blocker_2": "Ferry Street", "blocker_3": "Seatoun Tunnel", "blocker_1_residents": 5406, "blocker_2_residents": 5150, "blocker_3_residents": 5122, "snap_m": 95, "unconnected_conf": 5409.0 }, "geometry": { "type": "Point", "coordinates": [ 174.829603000000333, -41.323844000935644 ] } },
{ "type": "Feature", "properties": { "school": "Hampton Hill School", "type": "Contributing", "roll": 117.0, "suburb": "Tawa", "catchment_km": 2.0, "residents": 7853, "pct_all_ages": 3.2, "pct_confident": 42.4, "unconnected": 7601.0, "blocker_1": "Hampton Hill Road", "blocker_2": "Victory Crescent", "blocker_3": "Main Road", "blocker_1_residents": 7601, "blocker_2_residents": 5925, "blocker_3_residents": 5314, "snap_m": 21, "unconnected_conf": 4525.0 }, "geometry": { "type": "Point", "coordinates": [ 174.822493000000264, -41.166068000934963 ] } },
{ "type": "Feature", "properties": { "school": "Te Kura o Tawatawa - Ridgway School", "type": "Full Primary", "roll": 220.0, "suburb": "Mornington", "catchment_km": 2.0, "residents": 8677, "pct_all_ages": 13.9, "pct_confident": 34.0, "unconnected": 7472.0, "blocker_1": "Mornington Road", "blocker_2": "The Ridgeway", "blocker_3": "Ohiro Road", "blocker_1_residents": 2968, "blocker_2_residents": 2638, "blocker_3_residents": 2388, "snap_m": 63, "unconnected_conf": 5728.0 }, "geometry": { "type": "Point", "coordinates": [ 174.764465000000257, -41.315749000935597 ] } },
{ "type": "Feature", "properties": { "school": "Lyall Bay School", "type": "Contributing", "roll": 294.0, "suburb": "Lyall Bay", "catchment_km": 2.0, "residents": 11684, "pct_all_ages": 36.3, "pct_confident": 63.7, "unconnected": 7446.0, "blocker_1": "Freyberg Street", "blocker_2": "Queens Drive", "blocker_3": "(unnamed service)", "blocker_1_residents": 7446, "blocker_2_residents": 5290, "blocker_3_residents": 3490, "snap_m": 70, "unconnected_conf": 4240.0 }, "geometry": { "type": "Point", "coordinates": [ 174.793150000000338, -41.324592000935709 ] } },
{ "type": "Feature", "properties": { "school": "Hataitai School", "type": "Full Primary", "roll": 220.0, "suburb": "Hataitai", "catchment_km": 2.0, "residents": 7701, "pct_all_ages": 3.7, "pct_confident": 80.9, "unconnected": 7413.0, "blocker_1": "Arawa Road", "blocker_2": "Hataitai Road", "blocker_3": "Waipapa Road", "blocker_1_residents": 2753, "blocker_2_residents": 2614, "blocker_3_residents": 2437, "snap_m": 42, "unconnected_conf": 1471.0 }, "geometry": { "type": "Point", "coordinates": [ 174.800728000000248, -41.298115000935553 ] } },
{ "type": "Feature", "properties": { "school": "Northland School", "type": "Full Primary", "roll": 221.0, "suburb": "Northland", "catchment_km": 2.0, "residents": 7478, "pct_all_ages": 1.5, "pct_confident": 18.0, "unconnected": 7362.0, "blocker_1": "Harbour View Road", "blocker_2": "Northland Road", "blocker_3": "Northland Tunnel", "blocker_1_residents": 7362, "blocker_2_residents": 7278, "blocker_3_residents": 2196, "snap_m": 48, "unconnected_conf": 6129.0 }, "geometry": { "type": "Point", "coordinates": [ 174.760124000000246, -41.280654000935527 ] } },
{ "type": "Feature", "properties": { "school": "Cashmere Avenue School", "type": "Contributing", "roll": 313.0, "suburb": "Khandallah", "catchment_km": 2.0, "residents": 7831, "pct_all_ages": 8.2, "pct_confident": 35.5, "unconnected": 7189.0, "blocker_1": "Cashmere Avenue", "blocker_2": "Ranui Crescent", "blocker_3": "Everest Street", "blocker_1_residents": 7122, "blocker_2_residents": 3391, "blocker_3_residents": 1683, "snap_m": 19, "unconnected_conf": 5054.0 }, "geometry": { "type": "Point", "coordinates": [ 174.798197000000329, -41.247789000935292 ] } },
{ "type": "Feature", "properties": { "school": "Linden School", "type": "Contributing", "roll": 116.0, "suburb": "Tawa", "catchment_km": 2.0, "residents": 7233, "pct_all_ages": 6.7, "pct_confident": 20.3, "unconnected": 6747.0, "blocker_1": "Ranui Terrace", "blocker_2": "Collins Avenue", "blocker_3": "Main Road", "blocker_1_residents": 6747, "blocker_2_residents": 4511, "blocker_3_residents": 2196, "snap_m": 37, "unconnected_conf": 5763.0 }, "geometry": { "type": "Point", "coordinates": [ 174.835441000000372, -41.159351000934961 ] } },
{ "type": "Feature", "properties": { "school": "Amesbury School", "type": "Contributing", "roll": 260.0, "suburb": "Churton Park", "catchment_km": 2.0, "residents": 6620, "pct_all_ages": 8.7, "pct_confident": 75.5, "unconnected": 6042.0, "blocker_1": "(unnamed path)", "blocker_2": "Amesbury Drive", "blocker_3": "Westchester Drive", "blocker_1_residents": 6042, "blocker_2_residents": 5216, "blocker_3_residents": 3504, "snap_m": 15, "unconnected_conf": 1625.0 }, "geometry": { "type": "Point", "coordinates": [ 174.802131000000259, -41.199095000935166 ] } },
{ "type": "Feature", "properties": { "school": "St Francis De Sales School (Is Bay)", "type": "Full Primary", "roll": 199.0, "suburb": "Island Bay", "catchment_km": 2.0, "residents": 9403, "pct_all_ages": 37.5, "pct_confident": 51.8, "unconnected": 5876.0, "blocker_1": "Clyde Street", "blocker_2": "Melrose Road", "blocker_3": "Derwent Street", "blocker_1_residents": 2428, "blocker_2_residents": 1458, "blocker_3_residents": 1349, "snap_m": 20, "unconnected_conf": 4536.0 }, "geometry": { "type": "Point", "coordinates": [ 174.775060000000224, -41.337887000935709 ] } },
{ "type": "Feature", "properties": { "school": "Miramar North School", "type": "Contributing", "roll": 234.0, "suburb": "Miramar", "catchment_km": 2.0, "residents": 7623, "pct_all_ages": 24.9, "pct_confident": 48.7, "unconnected": 5727.0, "blocker_1": "Camperdown Road", "blocker_2": "Park Road", "blocker_3": "(unnamed tertiary)", "blocker_1_residents": 5021, "blocker_2_residents": 2936, "blocker_3_residents": 2873, "snap_m": 169, "unconnected_conf": 3908.0 }, "geometry": { "type": "Point", "coordinates": [ 174.824236000000298, -41.30390700093561 ] } },
{ "type": "Feature", "properties": { "school": "St Francis Xavier School (Tawa)", "type": "Contributing", "roll": 159.0, "suburb": "Tawa", "catchment_km": 2.0, "residents": 5396, "pct_all_ages": 1.6, "pct_confident": 1.6, "unconnected": 5311.0, "blocker_1": "Main Road", "blocker_2": "(unnamed secondary)", "blocker_3": "The Drive", "blocker_1_residents": 5311, "blocker_2_residents": 4179, "blocker_3_residents": 2588, "snap_m": 16, "unconnected_conf": 5311.0 }, "geometry": { "type": "Point", "coordinates": [ 174.824816000000368, -41.179001000935081 ] } },
{ "type": "Feature", "properties": { "school": "Wadestown School", "type": "Full Primary", "roll": 254.0, "suburb": "Wadestown", "catchment_km": 2.0, "residents": 5244, "pct_all_ages": 1.4, "pct_confident": 82.0, "unconnected": 5170.0, "blocker_1": "Mairangi Road", "blocker_2": "Cecil Road", "blocker_3": "Margaret Street", "blocker_1_residents": 4537, "blocker_2_residents": 2375, "blocker_3_residents": 2305, "snap_m": 64, "unconnected_conf": 942.0 }, "geometry": { "type": "Point", "coordinates": [ 174.767833000000309, -41.262739000935426 ] } },
{ "type": "Feature", "properties": { "school": "Ōtari School", "type": "Full Primary", "roll": 200.0, "suburb": "Wilton", "catchment_km": 2.0, "residents": 5030, "pct_all_ages": 2.1, "pct_confident": 2.1, "unconnected": 4927.0, "blocker_1": "Wilton Road", "blocker_2": "(unnamed secondary)", "blocker_3": "Gloucester Street", "blocker_1_residents": 3983, "blocker_2_residents": 1625, "blocker_3_residents": 1065, "snap_m": 25, "unconnected_conf": 4927.0 }, "geometry": { "type": "Point", "coordinates": [ 174.756417000000226, -41.268241000935426 ] } },
{ "type": "Feature", "properties": { "school": "Greenacres School", "type": "Contributing", "roll": 165.0, "suburb": "Tawa", "catchment_km": 2.0, "residents": 5150, "pct_all_ages": 6.4, "pct_confident": 19.3, "unconnected": 4822.0, "blocker_1": "Raroa Terrace", "blocker_2": "Mahoe Street", "blocker_3": "Collins Avenue", "blocker_1_residents": 4822, "blocker_2_residents": 3940, "blocker_3_residents": 3532, "snap_m": 14, "unconnected_conf": 4155.0 }, "geometry": { "type": "Point", "coordinates": [ 174.838773000000259, -41.164324000934997 ] } },
{ "type": "Feature", "properties": { "school": "Roseneath School", "type": "Full Primary", "roll": 79.0, "suburb": "Roseneath", "catchment_km": 2.0, "residents": 4870, "pct_all_ages": 3.5, "pct_confident": 19.6, "unconnected": 4700.0, "blocker_1": "Maida Vale Road", "blocker_2": "Grafton Road", "blocker_3": "The Crescent", "blocker_1_residents": 3564, "blocker_2_residents": 2781, "blocker_3_residents": 2638, "snap_m": 34, "unconnected_conf": 3916.0 }, "geometry": { "type": "Point", "coordinates": [ 174.802491000000288, -41.287468000935533 ] } },
{ "type": "Feature", "properties": { "school": "Redwood School (Tawa)", "type": "Contributing", "roll": 314.0, "suburb": "Tawa", "catchment_km": 2.0, "residents": 4904, "pct_all_ages": 5.5, "pct_confident": 6.6, "unconnected": 4634.0, "blocker_1": "Redwood Avenue", "blocker_2": "Oriel Avenue", "blocker_3": "(unnamed secondary)", "blocker_1_residents": 3094, "blocker_2_residents": 1501, "blocker_3_residents": 1408, "snap_m": 49, "unconnected_conf": 4581.0 }, "geometry": { "type": "Point", "coordinates": [ 174.821898000000374, -41.182092000935114 ] } },
{ "type": "Feature", "properties": { "school": "Houghton Valley School", "type": "Contributing", "roll": 199.0, "suburb": "Houghton Bay", "catchment_km": 2.0, "residents": 4264, "pct_all_ages": 2.4, "pct_confident": 22.3, "unconnected": 4161.0, "blocker_1": "Houghton Bay Road", "blocker_2": "Mount Albert Road", "blocker_3": "Buckley Road", "blocker_1_residents": 3257, "blocker_2_residents": 1044, "blocker_3_residents": 1001, "snap_m": 39, "unconnected_conf": 3311.0 }, "geometry": { "type": "Point", "coordinates": [ 174.787650000000326, -41.33415300093575 ] } },
{ "type": "Feature", "properties": { "school": "Crofton Downs Primary School", "type": "Contributing", "roll": 164.0, "suburb": "Crofton Downs", "catchment_km": 2.0, "residents": 3897, "pct_all_ages": 10.6, "pct_confident": 36.3, "unconnected": 3483.0, "blocker_1": "Chartwell Drive", "blocker_2": "Churchill Drive", "blocker_3": "(unnamed secondary)", "blocker_1_residents": 3252, "blocker_2_residents": 2692, "blocker_3_residents": 1730, "snap_m": 27, "unconnected_conf": 2481.0 }, "geometry": { "type": "Point", "coordinates": [ 174.764037000000258, -41.259600000935372 ] } },
{ "type": "Feature", "properties": { "school": "Owhiro Bay School", "type": "Contributing", "roll": 88.0, "suburb": "Owhiro Bay", "catchment_km": 2.0, "residents": 3214, "pct_all_ages": 4.2, "pct_confident": 4.5, "unconnected": 3080.0, "blocker_1": "Happy Valley Road", "blocker_2": "Robertson Street", "blocker_3": "Severn Street", "blocker_1_residents": 2452, "blocker_2_residents": 1401, "blocker_3_residents": 1107, "snap_m": 55, "unconnected_conf": 3068.0 }, "geometry": { "type": "Point", "coordinates": [ 174.759738000000254, -41.337797000935765 ] } },
{ "type": "Feature", "properties": { "school": "Seatoun School", "type": "Full Primary", "roll": 394.0, "suburb": "Seatoun", "catchment_km": 2.0, "residents": 3905, "pct_all_ages": 45.1, "pct_confident": 69.0, "unconnected": 2145.0, "blocker_1": "Gore Street", "blocker_2": "Hector Street", "blocker_3": "Broadway", "blocker_1_residents": 2007, "blocker_2_residents": 2007, "blocker_3_residents": 1266, "snap_m": 18, "unconnected_conf": 1209.0 }, "geometry": { "type": "Point", "coordinates": [ 174.836841000000362, -41.326459000935671 ] } },
{ "type": "Feature", "properties": { "school": "Mākara Model School", "type": "Full Primary", "roll": 64.0, "suburb": "Makara", "catchment_km": 2.0, "residents": 147, "pct_all_ages": 39.8, "pct_confident": 100.0, "unconnected": 88.0, "blocker_1": "Makara Road", "blocker_2": "South Makara Road", "blocker_3": "Makara Cemetery", "blocker_1_residents": 88, "blocker_2_residents": 13, "blocker_3_residents": 5, "snap_m": 70, "unconnected_conf": 0.0 }, "geometry": { "type": "Point", "coordinates": [ 174.70491500000017, -41.26811200093546 ] } }
]
}
