{
"type": "FeatureCollection",
"name": "cycle_review",
"crs": { "type": "name", "properties": { "name": "urn:ogc:def:crs:OGC:1.3:CRS84" } },
"features": [
{ "type": "Feature", "properties": { "kind": "protected_ends", "name": "Whitmore Street", "other": "Whitmore Street", "highway": null, "gap_m": null, "detour_m": null, "trips": 8835.4683256570206 }, "geometry": { "type": "Point", "coordinates": [ 174.7783244, -41.2810373 ] } },
{ "type": "Feature", "properties": { "kind": "protected_ends", "name": "Crawford Road", "other": "Crawford Road", "highway": null, "gap_m": null, "detour_m": null, "trips": 4530.6837419534513 }, "geometry": { "type": "Point", "coordinates": [ 174.7935789, -41.3175959 ] } },
{ "type": "Feature", "properties": { "kind": "protected_ends", "name": "Findlay Street", "other": "Linden Avenue", "highway": null, "gap_m": null, "detour_m": null, "trips": 3581.7826052188252 }, "geometry": { "type": "Point", "coordinates": [ 174.8317099, -41.157216800000015 ] } },
{ "type": "Feature", "properties": { "kind": "protected_ends", "name": "Beauchamp Street", "other": "Linden Avenue", "highway": null, "gap_m": null, "detour_m": null, "trips": 3445.1939328544695 }, "geometry": { "type": "Point", "coordinates": [ 174.831731, -41.1572236 ] } },
{ "type": "Feature", "properties": { "kind": "protected_ends", "name": "Taurima Street", "other": "Taurima Street", "highway": null, "gap_m": null, "detour_m": null, "trips": 3297.6964467536636 }, "geometry": { "type": "Point", "coordinates": [ 174.792876, -41.304493 ] } },
{ "type": "Feature", "properties": { "kind": "protected_ends", "name": "Tasman Street", "other": "Tasman Street", "highway": null, "gap_m": null, "detour_m": null, "trips": 3198.2008935292724 }, "geometry": { "type": "Point", "coordinates": [ 174.7782224, -41.2989213 ] } },
{ "type": "Feature", "properties": { "kind": "protected_ends", "name": null, "other": "Wakefield Street", "highway": null, "gap_m": null, "detour_m": null, "trips": 3068.3679110915241 }, "geometry": { "type": "Point", "coordinates": [ 174.778293, -41.2904221 ] } },
{ "type": "Feature", "properties": { "kind": "protected_ends", "name": "Little Palmer Street", "other": "Abel Smith Street", "highway": null, "gap_m": null, "detour_m": null, "trips": 3013.6593718263061 }, "geometry": { "type": "Point", "coordinates": [ 174.7698498, -41.2948829 ] } },
{ "type": "Feature", "properties": { "kind": "protected_ends", "name": "Jervois Quay", "other": "Willeston Street", "highway": null, "gap_m": null, "detour_m": null, "trips": 2414.4260712173982 }, "geometry": { "type": "Point", "coordinates": [ 174.778264799999988, -41.287051699999985 ] } },
{ "type": "Feature", "properties": { "kind": "protected_ends", "name": "Majoribanks Street", "other": "Majoribanks Street", "highway": null, "gap_m": null, "detour_m": null, "trips": 2069.0737347044887 }, "geometry": { "type": "Point", "coordinates": [ 174.7843523, -41.2941203 ] } },
{ "type": "Feature", "properties": { "kind": "protected_ends", "name": "Victoria Street", "other": "Victoria Street", "highway": null, "gap_m": null, "detour_m": null, "trips": 1763.6581655006717 }, "geometry": { "type": "Point", "coordinates": [ 174.7716038, -41.2963552 ] } },
{ "type": "Feature", "properties": { "kind": "protected_ends", "name": null, "other": "Taurima Street", "highway": null, "gap_m": null, "detour_m": null, "trips": 1627.3803516339351 }, "geometry": { "type": "Point", "coordinates": [ 174.7930997, -41.3044942 ] } },
{ "type": "Feature", "properties": { "kind": "protected_ends", "name": null, "other": "Willis Street", "highway": null, "gap_m": null, "detour_m": null, "trips": 1588.8725957616407 }, "geometry": { "type": "Point", "coordinates": [ 174.772026, -41.2939086 ] } },
{ "type": "Feature", "properties": { "kind": "protected_ends", "name": "Park Street", "other": "Park Street", "highway": null, "gap_m": null, "detour_m": null, "trips": 1361.4878132860267 }, "geometry": { "type": "Point", "coordinates": [ 174.777217, -41.2714617 ] } },
{ "type": "Feature", "properties": { "kind": "protected_ends", "name": "Park Street", "other": "Park Street", "highway": null, "gap_m": null, "detour_m": null, "trips": 1280.2196565282745 }, "geometry": { "type": "Point", "coordinates": [ 174.7764894, -41.2709122 ] } },
{ "type": "Feature", "properties": { "kind": "protected_ends", "name": "Ellice Street", "other": "Ellice Street", "highway": null, "gap_m": null, "detour_m": null, "trips": 1247.9685710199024 }, "geometry": { "type": "Point", "coordinates": [ 174.781822799999986, -41.2999789 ] } },
{ "type": "Feature", "properties": { "kind": "protected_ends", "name": null, "other": "Vivian Street", "highway": null, "gap_m": null, "detour_m": null, "trips": 951.89271057221254 }, "geometry": { "type": "Point", "coordinates": [ 174.7761677, -41.2951877 ] } },
{ "type": "Feature", "properties": { "kind": "protected_ends", "name": "Bay Road", "other": "Bay Road", "highway": null, "gap_m": null, "detour_m": null, "trips": 940.04730074985287 }, "geometry": { "type": "Point", "coordinates": [ 174.795172400000041, -41.3174574 ] } },
{ "type": "Feature", "properties": { "kind": "protected_ends", "name": "Crofton Road", "other": "Crofton Road", "highway": null, "gap_m": null, "detour_m": null, "trips": 935.73598837091902 }, "geometry": { "type": "Point", "coordinates": [ 174.7731911, -41.2510262 ] } },
{ "type": "Feature", "properties": { "kind": "protected_ends", "name": "Murphy Street", "other": "Murphy Street", "highway": null, "gap_m": null, "detour_m": null, "trips": 898.60087645325166 }, "geometry": { "type": "Point", "coordinates": [ 174.7778089, -41.2718302 ] } },
{ "type": "Feature", "properties": { "kind": "protected_ends", "name": "Tawa Street", "other": "Tawa Street", "highway": null, "gap_m": null, "detour_m": null, "trips": 886.24850751120061 }, "geometry": { "type": "Point", "coordinates": [ 174.8269588, -41.1756036 ] } },
{ "type": "Feature", "properties": { "kind": "protected_ends", "name": null, "other": "Helston Road", "highway": null, "gap_m": null, "detour_m": null, "trips": 814.45640897949261 }, "geometry": { "type": "Point", "coordinates": [ 174.8078336, -41.2205465 ] } },
{ "type": "Feature", "properties": { "kind": "protected_ends", "name": "Maupuia Road", "other": "Maupuia Road", "highway": null, "gap_m": null, "detour_m": null, "trips": 755.49139600967362 }, "geometry": { "type": "Point", "coordinates": [ 174.8127378, -41.3147015 ] } },
{ "type": "Feature", "properties": { "kind": "protected_ends", "name": null, "other": "Victoria Street", "highway": null, "gap_m": null, "detour_m": null, "trips": 708.0085239699514 }, "geometry": { "type": "Point", "coordinates": [ 174.7719582, -41.295749 ] } },
{ "type": "Feature", "properties": { "kind": "protected_ends", "name": null, "other": "Johnston Street", "highway": null, "gap_m": null, "detour_m": null, "trips": 681.30346127910695 }, "geometry": { "type": "Point", "coordinates": [ 174.7782139, -41.283245799999989 ] } },
{ "type": "Feature", "properties": { "kind": "protected_ends", "name": "Ohiro Road", "other": "Ohiro Road", "highway": null, "gap_m": null, "detour_m": null, "trips": 622.5613307923079 }, "geometry": { "type": "Point", "coordinates": [ 174.763936300000012, -41.303231 ] } },
{ "type": "Feature", "properties": { "kind": "protected_ends", "name": "Taranaki Street", "other": "Taranaki Street", "highway": null, "gap_m": null, "detour_m": null, "trips": 622.54800032821117 }, "geometry": { "type": "Point", "coordinates": [ 174.780075400000015, -41.2904307 ] } },
{ "type": "Feature", "properties": { "kind": "protected_ends", "name": null, "other": "Mount Albert Road", "highway": null, "gap_m": null, "detour_m": null, "trips": 577.96846028620212 }, "geometry": { "type": "Point", "coordinates": [ 174.7805549, -41.3259978 ] } },
{ "type": "Feature", "properties": { "kind": "protected_ends", "name": null, "other": "Kingsford Smith Street", "highway": null, "gap_m": null, "detour_m": null, "trips": 533.29788041102609 }, "geometry": { "type": "Point", "coordinates": [ 174.800679699999989, -41.3266966 ] } },
{ "type": "Feature", "properties": { "kind": "protected_ends", "name": "Brooklyn Road", "other": "Brooklyn Road", "highway": null, "gap_m": null, "detour_m": null, "trips": 526.92215440305336 }, "geometry": { "type": "Point", "coordinates": [ 174.7654193, -41.3027559 ] } },
{ "type": "Feature", "properties": { "kind": "protected_ends", "name": null, "other": "Lyall Parade", "highway": null, "gap_m": null, "detour_m": null, "trips": 516.3798330230901 }, "geometry": { "type": "Point", "coordinates": [ 174.79887020000001, -41.3281092 ] } },
{ "type": "Feature", "properties": { "kind": "protected_ends", "name": "Vivian Street", "other": "Vivian Street", "highway": null, "gap_m": null, "detour_m": null, "trips": 469.50695605777048 }, "geometry": { "type": "Point", "coordinates": [ 174.773022900000029, -41.294169 ] } },
{ "type": "Feature", "properties": { "kind": "protected_ends", "name": "Tawa Street", "other": null, "highway": null, "gap_m": null, "detour_m": null, "trips": 399.5827613590306 }, "geometry": { "type": "Point", "coordinates": [ 174.8276525, -41.1751696 ] } },
{ "type": "Feature", "properties": { "kind": "protected_ends", "name": "Buller Street", "other": "Ghuznee Street", "highway": null, "gap_m": null, "detour_m": null, "trips": 397.59597934604494 }, "geometry": { "type": "Point", "coordinates": [ 174.7715792, -41.291942 ] } },
{ "type": "Feature", "properties": { "kind": "protected_ends", "name": null, "other": "Vivian Street", "highway": null, "gap_m": null, "detour_m": null, "trips": 374.97612464889852 }, "geometry": { "type": "Point", "coordinates": [ 174.775799400000011, -41.2950708 ] } },
{ "type": "Feature", "properties": { "kind": "protected_ends", "name": "Ranelagh Street", "other": "Marshall Street", "highway": null, "gap_m": null, "detour_m": null, "trips": 292.17685828233346 }, "geometry": { "type": "Point", "coordinates": [ 174.7281183, -41.2861913 ] } },
{ "type": "Feature", "properties": { "kind": "protected_ends", "name": "City to Sea Walkway", "other": "Liardet Street", "highway": null, "gap_m": null, "detour_m": null, "trips": 227.86980313322471 }, "geometry": { "type": "Point", "coordinates": [ 174.7701371, -41.3193428 ] } },
{ "type": "Feature", "properties": { "kind": "protected_ends", "name": "Waterloo Quay", "other": "Bunny Street", "highway": null, "gap_m": null, "detour_m": null, "trips": 224.67401319000788 }, "geometry": { "type": "Point", "coordinates": [ 174.7803979, -41.2803272 ] } },
{ "type": "Feature", "properties": { "kind": "protected_ends", "name": "Maupuia Walkway (Old Prison Road)", "other": "Akaroa Drive", "highway": null, "gap_m": null, "detour_m": null, "trips": 180.34293266862653 }, "geometry": { "type": "Point", "coordinates": [ 174.8148364, -41.3087672 ] } },
{ "type": "Feature", "properties": { "kind": "protected_ends", "name": "Harrold Street", "other": "Raroa Road", "highway": null, "gap_m": null, "detour_m": null, "trips": 163.34542536167669 }, "geometry": { "type": "Point", "coordinates": [ 174.7596002, -41.2917346 ] } },
{ "type": "Feature", "properties": { "kind": "protected_ends", "name": null, "other": "Daniell Street", "highway": null, "gap_m": null, "detour_m": null, "trips": 148.90064831852001 }, "geometry": { "type": "Point", "coordinates": [ 174.7826231, -41.314089499999987 ] } },
{ "type": "Feature", "properties": { "kind": "protected_ends", "name": "Aotea Quay", "other": "Aotea Quay", "highway": null, "gap_m": null, "detour_m": null, "trips": 145.48627079014281 }, "geometry": { "type": "Point", "coordinates": [ 174.786563300000012, -41.2704979 ] } },
{ "type": "Feature", "properties": { "kind": "protected_ends", "name": null, "other": "Wellington Road", "highway": null, "gap_m": null, "detour_m": null, "trips": 118.64646908129666 }, "geometry": { "type": "Point", "coordinates": [ 174.7894191, -41.3131573 ] } },
{ "type": "Feature", "properties": { "kind": "protected_ends", "name": null, "other": "Waipapa Road", "highway": null, "gap_m": null, "detour_m": null, "trips": 106.22279649644653 }, "geometry": { "type": "Point", "coordinates": [ 174.796181800000028, -41.3040462 ] } },
{ "type": "Feature", "properties": { "kind": "protected_ends", "name": "Mulgrave Street", "other": "Mulgrave Street", "highway": null, "gap_m": null, "detour_m": null, "trips": 99.639964772101848 }, "geometry": { "type": "Point", "coordinates": [ 174.780195600000013, -41.2778507 ] } },
{ "type": "Feature", "properties": { "kind": "protected_ends", "name": "Jervois Quay", "other": "Jervois Quay", "highway": null, "gap_m": null, "detour_m": null, "trips": 98.567157802429861 }, "geometry": { "type": "Point", "coordinates": [ 174.7784241, -41.2879932 ] } },
{ "type": "Feature", "properties": { "kind": "protected_ends", "name": "Northland Tunnel Road", "other": "Northland Tunnel Road", "highway": null, "gap_m": null, "detour_m": null, "trips": 93.123073232101518 }, "geometry": { "type": "Point", "coordinates": [ 174.7549827, -41.2852013 ] } },
{ "type": "Feature", "properties": { "kind": "protected_ends", "name": "Rongotai Road", "other": "Rongotai Road", "highway": null, "gap_m": null, "detour_m": null, "trips": 93.072982768854786 }, "geometry": { "type": "Point", "coordinates": [ 174.800983800000012, -41.3188979 ] } },
{ "type": "Feature", "properties": { "kind": "protected_ends", "name": "Aro Street", "other": "Aro Street", "highway": null, "gap_m": null, "detour_m": null, "trips": 88.467062399833011 }, "geometry": { "type": "Point", "coordinates": [ 174.7700518, -41.2960695 ] } },
{ "type": "Feature", "properties": { "kind": "protected_ends", "name": "Aro Street", "other": "Aro Street", "highway": null, "gap_m": null, "detour_m": null, "trips": 88.467062399833011 }, "geometry": { "type": "Point", "coordinates": [ 174.7697707, -41.2959849 ] } },
{ "type": "Feature", "properties": { "kind": "protected_ends", "name": "Kenya Street", "other": "Kenya Street", "highway": null, "gap_m": null, "detour_m": null, "trips": 88.349626191653726 }, "geometry": { "type": "Point", "coordinates": [ 174.7725992, -41.2528287 ] } },
{ "type": "Feature", "properties": { "kind": "protected_ends", "name": "Cobham Drive", "other": null, "highway": null, "gap_m": null, "detour_m": null, "trips": 77.591921246162883 }, "geometry": { "type": "Point", "coordinates": [ 174.802818900000034, -41.3171248 ] } },
{ "type": "Feature", "properties": { "kind": "protected_ends", "name": null, "other": "Oxford Street", "highway": null, "gap_m": null, "detour_m": null, "trips": 77.310766570348733 }, "geometry": { "type": "Point", "coordinates": [ 174.8268586, -41.1697425 ] } },
{ "type": "Feature", "properties": { "kind": "missing_link", "name": null, "other": null, "highway": "path", "gap_m": 1.0803821821631217, "detour_m": null, "trips": 66.305153607264401 }, "geometry": { "type": "Point", "coordinates": [ 174.774709100000024, -41.2932864 ] } },
{ "type": "Feature", "properties": { "kind": "missing_link", "name": "Europe Lane", "other": "Aurora Terrace", "highway": "path", "gap_m": 19.316207474070815, "detour_m": 797.43538455388159, "trips": 63.231766189890081 }, "geometry": { "type": "Point", "coordinates": [ 174.7739547, -41.2810476 ] } },
{ "type": "Feature", "properties": { "kind": "protected_ends", "name": null, "other": "Main Road", "highway": null, "gap_m": null, "detour_m": null, "trips": 60.395022309463194 }, "geometry": { "type": "Point", "coordinates": [ 174.8250041, -41.1695509 ] } },
{ "type": "Feature", "properties": { "kind": "protected_ends", "name": null, "other": "Kingsford Smith Street", "highway": null, "gap_m": null, "detour_m": null, "trips": 52.464270106487241 }, "geometry": { "type": "Point", "coordinates": [ 174.8014532, -41.3248326 ] } },
{ "type": "Feature", "properties": { "kind": "protected_ends", "name": "Hutt Road", "other": "Hutt Road", "highway": null, "gap_m": null, "detour_m": null, "trips": 52.23515747778864 }, "geometry": { "type": "Point", "coordinates": [ 174.8120492, -41.248192 ] } },
{ "type": "Feature", "properties": { "kind": "missing_link", "name": null, "other": "Brooklyn Road", "highway": "path", "gap_m": 71.290112039285205, "detour_m": 600.28241009867656, "trips": 27.136795730249254 }, "geometry": { "type": "Point", "coordinates": [ 174.7687894, -41.2978546 ] } },
{ "type": "Feature", "properties": { "kind": "missing_link", "name": null, "other": "The Terrace", "highway": "footway", "gap_m": 19.625003493447071, "detour_m": 206.42080391141016, "trips": 18.09526292274753 }, "geometry": { "type": "Point", "coordinates": [ 174.775087899999988, -41.2817856 ] } },
{ "type": "Feature", "properties": { "kind": "missing_link", "name": null, "other": "Dixon Street", "highway": "path", "gap_m": 1.3651205053201816, "detour_m": 249.33150972716248, "trips": 16.484814453811335 }, "geometry": { "type": "Point", "coordinates": [ 174.7774752, -41.291982 ] } },
{ "type": "Feature", "properties": { "kind": "missing_link", "name": null, "other": "Old Coach Road / Skyline Walkway - Johnsonville to Mākara Hill", "highway": "path", "gap_m": 195.70627258689402, "detour_m": 2160.561113773575, "trips": 5.3207081614250651 }, "geometry": { "type": "Point", "coordinates": [ 174.7899875, -41.2203446 ] } },
{ "type": "Feature", "properties": { "kind": "missing_link", "name": null, "other": null, "highway": "path", "gap_m": 38.45434057606235, "detour_m": 362.26604779081725, "trips": 2.2457697079177854 }, "geometry": { "type": "Point", "coordinates": [ 174.789984, -41.3059893 ] } },
{ "type": "Feature", "properties": { "kind": "missing_link", "name": "Mystic Portal", "other": null, "highway": "cycleway", "gap_m": 20.460981329388378, "detour_m": 755.85410137063673, "trips": 1.7981782489144162 }, "geometry": { "type": "Point", "coordinates": [ 174.770088500000014, -41.3101982 ] } },
{ "type": "Feature", "properties": { "kind": "missing_link", "name": "Orchard Street", "other": "Grosvenor Terrace", "highway": "footway", "gap_m": 2.5320124712028509, "detour_m": 890.31775647581333, "trips": 1.7040764451248323 }, "geometry": { "type": "Point", "coordinates": [ 174.779668500000014, -41.2671172 ] } },
{ "type": "Feature", "properties": { "kind": "missing_link", "name": "Centennial Highway", "other": "Ngauranga Gorge Shared Path", "highway": "trunk", "gap_m": 10.514342918973208, "detour_m": 735.66380967682448, "trips": 0.0 }, "geometry": { "type": "Point", "coordinates": [ 174.8086702, -41.2284851 ] } },
{ "type": "Feature", "properties": { "kind": "missing_link", "name": "Southern Walkway", "other": "Alexandra Road", "highway": "path", "gap_m": 119.02823646334288, "detour_m": null, "trips": 0.0 }, "geometry": { "type": "Point", "coordinates": [ 174.7881098, -41.3086579 ] } },
{ "type": "Feature", "properties": { "kind": "missing_link", "name": null, "other": null, "highway": "footway", "gap_m": 70.968136523387201, "detour_m": null, "trips": 0.0 }, "geometry": { "type": "Point", "coordinates": [ 174.789254, -41.306314 ] } },
{ "type": "Feature", "properties": { "kind": "missing_link", "name": "Transient", "other": "Aro Street", "highway": "path", "gap_m": 22.631438414956339, "detour_m": null, "trips": 0.0 }, "geometry": { "type": "Point", "coordinates": [ 174.7612495, -41.2937803 ] } },
{ "type": "Feature", "properties": { "kind": "missing_link", "name": null, "other": null, "highway": "path", "gap_m": 3.4666986546246092, "detour_m": null, "trips": 0.0 }, "geometry": { "type": "Point", "coordinates": [ 174.7788468, -41.29856310000001 ] } },
{ "type": "Feature", "properties": { "kind": "missing_link", "name": null, "other": null, "highway": "path", "gap_m": 1.933387838494723, "detour_m": null, "trips": 0.0 }, "geometry": { "type": "Point", "coordinates": [ 174.77870870000001, -41.2985417 ] } },
{ "type": "Feature", "properties": { "kind": "missing_link", "name": null, "other": null, "highway": "path", "gap_m": 2.6149449049615137, "detour_m": null, "trips": 0.0 }, "geometry": { "type": "Point", "coordinates": [ 174.7787052, -41.2985183 ] } },
{ "type": "Feature", "properties": { "kind": "missing_link", "name": null, "other": null, "highway": "footway", "gap_m": 21.816785258392454, "detour_m": null, "trips": 0.0 }, "geometry": { "type": "Point", "coordinates": [ 174.79934750000001, -41.326562 ] } },
{ "type": "Feature", "properties": { "kind": "missing_link", "name": "Miro", "other": "Starfish", "highway": "cycleway", "gap_m": 15.321958013028548, "detour_m": 892.06565829972124, "trips": 0.0 }, "geometry": { "type": "Point", "coordinates": [ 174.7164036, -41.2944078 ] } },
{ "type": "Feature", "properties": { "kind": "missing_link", "name": "Tower 16 Connector", "other": "Upper Leaping Lizard", "highway": "track", "gap_m": 135.95881292059423, "detour_m": 702.48430742880976, "trips": 0.0 }, "geometry": { "type": "Point", "coordinates": [ 174.7025813, -41.2912657 ] } },
{ "type": "Feature", "properties": { "kind": "missing_link", "name": null, "other": "Makara Road", "highway": "path", "gap_m": 59.515973878349243, "detour_m": 581.97970755574204, "trips": 0.0 }, "geometry": { "type": "Point", "coordinates": [ 174.7224283, -41.288042 ] } },
{ "type": "Feature", "properties": { "kind": "missing_link", "name": null, "other": null, "highway": "path", "gap_m": 1.0803821821631217, "detour_m": null, "trips": 0.0 }, "geometry": { "type": "Point", "coordinates": [ 174.774714, -41.2932774 ] } },
{ "type": "Feature", "properties": { "kind": "missing_link", "name": null, "other": "Harris Street", "highway": "path", "gap_m": 42.442894307605613, "detour_m": null, "trips": 0.0 }, "geometry": { "type": "Point", "coordinates": [ 174.7773982, -41.2881239 ] } },
{ "type": "Feature", "properties": { "kind": "missing_link", "name": null, "other": null, "highway": "path", "gap_m": 11.360461984209893, "detour_m": null, "trips": 0.0 }, "geometry": { "type": "Point", "coordinates": [ 174.8104601, -41.318124 ] } },
{ "type": "Feature", "properties": { "kind": "missing_link", "name": null, "other": null, "highway": "path", "gap_m": 10.223373096894708, "detour_m": null, "trips": 0.0 }, "geometry": { "type": "Point", "coordinates": [ 174.776722799999988, -41.2885349 ] } },
{ "type": "Feature", "properties": { "kind": "missing_link", "name": "Mountain bike skills area", "other": null, "highway": "path", "gap_m": 10.747435638274988, "detour_m": null, "trips": 0.0 }, "geometry": { "type": "Point", "coordinates": [ 174.7890808, -41.3111862 ] } },
{ "type": "Feature", "properties": { "kind": "missing_link", "name": null, "other": null, "highway": "path", "gap_m": 35.413510966475286, "detour_m": 549.41509451112336, "trips": 0.0 }, "geometry": { "type": "Point", "coordinates": [ 174.780571900000012, -41.325226799999989 ] } },
{ "type": "Feature", "properties": { "kind": "missing_link", "name": null, "other": "Bute Street", "highway": "path", "gap_m": 18.72858173133454, "detour_m": null, "trips": 0.0 }, "geometry": { "type": "Point", "coordinates": [ 174.774621200000013, -41.2937877 ] } },
{ "type": "Feature", "properties": { "kind": "missing_link", "name": null, "other": null, "highway": "cycleway", "gap_m": 3.2619535696414839, "detour_m": null, "trips": 0.0 }, "geometry": { "type": "Point", "coordinates": [ 174.744323799999989, -41.3118727 ] } },
{ "type": "Feature", "properties": { "kind": "missing_link", "name": null, "other": null, "highway": "path", "gap_m": 2.3005530694457237, "detour_m": null, "trips": 0.0 }, "geometry": { "type": "Point", "coordinates": [ 174.779023400000028, -41.2986451 ] } },
{ "type": "Feature", "properties": { "kind": "missing_link", "name": null, "other": null, "highway": "path", "gap_m": 2.3005530694457237, "detour_m": null, "trips": 0.0 }, "geometry": { "type": "Point", "coordinates": [ 174.7790295, -41.2986653 ] } },
{ "type": "Feature", "properties": { "kind": "missing_link", "name": null, "other": null, "highway": "path", "gap_m": 3.4878425672201812, "detour_m": null, "trips": 0.0 }, "geometry": { "type": "Point", "coordinates": [ 174.779221, -41.2987089 ] } },
{ "type": "Feature", "properties": { "kind": "missing_link", "name": null, "other": null, "highway": "service", "gap_m": 10.886252811771772, "detour_m": null, "trips": 0.0 }, "geometry": { "type": "Point", "coordinates": [ 174.797832600000021, -41.3106757 ] } },
{ "type": "Feature", "properties": { "kind": "missing_link", "name": null, "other": "Kilbirnie Crescent", "highway": "path", "gap_m": 46.8315176581267, "detour_m": null, "trips": 0.0 }, "geometry": { "type": "Point", "coordinates": [ 174.793945900000011, -41.315793 ] } },
{ "type": "Feature", "properties": { "kind": "missing_link", "name": null, "other": "Boscobel Lane", "highway": "path", "gap_m": 27.646382244964023, "detour_m": null, "trips": 0.0 }, "geometry": { "type": "Point", "coordinates": [ 174.826552600000014, -41.1845213 ] } },
{ "type": "Feature", "properties": { "kind": "missing_link", "name": "Campbell Street to Wright's Hill Track", "other": "Campbell Street to Wright's Hill Track", "highway": "footway", "gap_m": 6.683821463925014, "detour_m": null, "trips": 0.0 }, "geometry": { "type": "Point", "coordinates": [ 174.7408662, -41.2961902 ] } },
{ "type": "Feature", "properties": { "kind": "missing_link", "name": null, "other": "Ara Tawa", "highway": "service", "gap_m": 27.786066836195296, "detour_m": null, "trips": 0.0 }, "geometry": { "type": "Point", "coordinates": [ 174.826674200000014, -41.1788747 ] } },
{ "type": "Feature", "properties": { "kind": "missing_link", "name": null, "other": null, "highway": "path", "gap_m": 1.4838625159275305, "detour_m": null, "trips": 0.0 }, "geometry": { "type": "Point", "coordinates": [ 174.778852699999987, -41.298594 ] } },
{ "type": "Feature", "properties": { "kind": "missing_link", "name": null, "other": null, "highway": "path", "gap_m": 21.479716105069592, "detour_m": null, "trips": 0.0 }, "geometry": { "type": "Point", "coordinates": [ 174.8101571, -41.3180339 ] } },
{ "type": "Feature", "properties": { "kind": "missing_link", "name": null, "other": null, "highway": "cycleway", "gap_m": 11.457073653189013, "detour_m": 205.31325526394747, "trips": 0.0 }, "geometry": { "type": "Point", "coordinates": [ 174.78061150000002, -41.280226199999987 ] } },
{ "type": "Feature", "properties": { "kind": "missing_link", "name": null, "other": null, "highway": "path", "gap_m": 2.6551276735388338, "detour_m": null, "trips": 0.0 }, "geometry": { "type": "Point", "coordinates": [ 174.7768313, -41.2885712 ] } },
{ "type": "Feature", "properties": { "kind": "missing_link", "name": null, "other": "Ghuznee Street", "highway": "path", "gap_m": 56.429514450213702, "detour_m": null, "trips": 0.0 }, "geometry": { "type": "Point", "coordinates": [ 174.774878199999989, -41.293060499999989 ] } },
{ "type": "Feature", "properties": { "kind": "missing_link", "name": null, "other": "Main Road", "highway": "cycleway", "gap_m": 15.27486156792258, "detour_m": 324.08821142103369, "trips": 0.0 }, "geometry": { "type": "Point", "coordinates": [ 174.8247562, -41.2979811 ] } },
{ "type": "Feature", "properties": { "kind": "missing_link", "name": null, "other": null, "highway": "path", "gap_m": 90.732190820327929, "detour_m": null, "trips": 0.0 }, "geometry": { "type": "Point", "coordinates": [ 174.764419800000013, -41.2819206 ] } },
{ "type": "Feature", "properties": { "kind": "missing_link", "name": null, "other": null, "highway": "path", "gap_m": 11.360461984209893, "detour_m": null, "trips": 0.0 }, "geometry": { "type": "Point", "coordinates": [ 174.8105565, -41.318196 ] } },
{ "type": "Feature", "properties": { "kind": "missing_link", "name": null, "other": null, "highway": "path", "gap_m": 20.467663367563286, "detour_m": 226.7653479501069, "trips": 0.0 }, "geometry": { "type": "Point", "coordinates": [ 174.78745570000001, -41.3096709 ] } },
{ "type": "Feature", "properties": { "kind": "missing_link", "name": "Campbell Street to Wright's Hill Track", "other": "Campbell Street to Wright's Hill Track", "highway": "footway", "gap_m": 6.683821463925014, "detour_m": null, "trips": 0.0 }, "geometry": { "type": "Point", "coordinates": [ 174.7407933, -41.2961657 ] } },
{ "type": "Feature", "properties": { "kind": "missing_link", "name": null, "other": "Victoria Street", "highway": "path", "gap_m": 11.060890082855849, "detour_m": null, "trips": 0.0 }, "geometry": { "type": "Point", "coordinates": [ 174.7762645, -41.2886012 ] } },
{ "type": "Feature", "properties": { "kind": "missing_link", "name": null, "other": null, "highway": "footway", "gap_m": 26.027717805624196, "detour_m": 314.78764748495945, "trips": 0.0 }, "geometry": { "type": "Point", "coordinates": [ 174.78987810000001, -41.2966427 ] } },
{ "type": "Feature", "properties": { "kind": "missing_link", "name": "Damien's", "other": null, "highway": "cycleway", "gap_m": 21.539146111424007, "detour_m": 242.91838145108869, "trips": 0.0 }, "geometry": { "type": "Point", "coordinates": [ 174.790334, -41.2958558 ] } },
{ "type": "Feature", "properties": { "kind": "missing_link", "name": null, "other": null, "highway": "footway", "gap_m": 19.561548234446992, "detour_m": null, "trips": 0.0 }, "geometry": { "type": "Point", "coordinates": [ 174.7994268, -41.3265823 ] } },
{ "type": "Feature", "properties": { "kind": "missing_link", "name": null, "other": "Mountain bike skills area", "highway": "track", "gap_m": 10.747435638274988, "detour_m": null, "trips": 0.0 }, "geometry": { "type": "Point", "coordinates": [ 174.789097100000021, -41.311282199999987 ] } },
{ "type": "Feature", "properties": { "kind": "missing_link", "name": null, "other": null, "highway": "path", "gap_m": 11.003793336994082, "detour_m": null, "trips": 0.0 }, "geometry": { "type": "Point", "coordinates": [ 174.7931667, -41.3147546 ] } },
{ "type": "Feature", "properties": { "kind": "missing_link", "name": null, "other": null, "highway": "path", "gap_m": 11.003793336994082, "detour_m": null, "trips": 0.0 }, "geometry": { "type": "Point", "coordinates": [ 174.793238699999989, -41.3148375 ] } },
{ "type": "Feature", "properties": { "kind": "missing_link", "name": null, "other": "Alexandra Road", "highway": "cycleway", "gap_m": 7.6235130056162435, "detour_m": null, "trips": 0.0 }, "geometry": { "type": "Point", "coordinates": [ 174.7879945, -41.3068593 ] } },
{ "type": "Feature", "properties": { "kind": "missing_link", "name": null, "other": null, "highway": "path", "gap_m": 1.933387838494723, "detour_m": null, "trips": 0.0 }, "geometry": { "type": "Point", "coordinates": [ 174.7787061, -41.2985244 ] } },
{ "type": "Feature", "properties": { "kind": "missing_link", "name": null, "other": null, "highway": "path", "gap_m": 2.1886558582965105, "detour_m": null, "trips": 0.0 }, "geometry": { "type": "Point", "coordinates": [ 174.7787339, -41.2984878 ] } },
{ "type": "Feature", "properties": { "kind": "missing_link", "name": null, "other": null, "highway": "path", "gap_m": 1.4838625159275305, "detour_m": null, "trips": 0.0 }, "geometry": { "type": "Point", "coordinates": [ 174.7788486, -41.298581 ] } },
{ "type": "Feature", "properties": { "kind": "missing_link", "name": null, "other": null, "highway": "path", "gap_m": 1.6366207531191321, "detour_m": null, "trips": 0.0 }, "geometry": { "type": "Point", "coordinates": [ 174.7788674, -41.2985264 ] } },
{ "type": "Feature", "properties": { "kind": "missing_link", "name": null, "other": "Ara Tawa", "highway": "service", "gap_m": 11.349653626272891, "detour_m": null, "trips": 0.0 }, "geometry": { "type": "Point", "coordinates": [ 174.827047, -41.17701970000001 ] } },
{ "type": "Feature", "properties": { "kind": "missing_link", "name": null, "other": null, "highway": "path", "gap_m": 3.3873778041462912, "detour_m": null, "trips": 0.0 }, "geometry": { "type": "Point", "coordinates": [ 174.7790238, -41.2986351 ] } },
{ "type": "Feature", "properties": { "kind": "missing_link", "name": null, "other": null, "highway": "path", "gap_m": 1.0804459910541555, "detour_m": null, "trips": 0.0 }, "geometry": { "type": "Point", "coordinates": [ 174.77904430000001, -41.2985745 ] } },
{ "type": "Feature", "properties": { "kind": "missing_link", "name": "Boscobel Lane", "other": "Boscobel Lane", "highway": "footway", "gap_m": 14.004880367965841, "detour_m": 245.60632984590004, "trips": 0.0 }, "geometry": { "type": "Point", "coordinates": [ 174.828191800000013, -41.1855265 ] } },
{ "type": "Feature", "properties": { "kind": "missing_link", "name": null, "other": null, "highway": "path", "gap_m": 1.5487584635589757, "detour_m": null, "trips": 0.0 }, "geometry": { "type": "Point", "coordinates": [ 174.779225700000012, -41.298726 ] } },
{ "type": "Feature", "properties": { "kind": "missing_link", "name": null, "other": null, "highway": "footway", "gap_m": 18.671500331612879, "detour_m": 855.67195184246157, "trips": 0.0 }, "geometry": { "type": "Point", "coordinates": [ 174.7808072, -41.2800401 ] } },
{ "type": "Feature", "properties": { "kind": "missing_link", "name": "Ngaio Gorge Track", "other": null, "highway": "track", "gap_m": 6.587966814080997, "detour_m": null, "trips": 0.0 }, "geometry": { "type": "Point", "coordinates": [ 174.7792196, -41.2573543 ] } },
{ "type": "Feature", "properties": { "kind": "missing_link", "name": null, "other": null, "highway": "cycleway", "gap_m": 3.2619535696414839, "detour_m": null, "trips": 0.0 }, "geometry": { "type": "Point", "coordinates": [ 174.7443527, -41.311853 ] } },
{ "type": "Feature", "properties": { "kind": "missing_link", "name": null, "other": "Bute Street", "highway": "path", "gap_m": 18.37341266001323, "detour_m": null, "trips": 0.0 }, "geometry": { "type": "Point", "coordinates": [ 174.774615100000034, -41.293798 ] } },
{ "type": "Feature", "properties": { "kind": "missing_link", "name": null, "other": null, "highway": "path", "gap_m": 2.6551276735388338, "detour_m": null, "trips": 0.0 }, "geometry": { "type": "Point", "coordinates": [ 174.7768434, -41.2885491 ] } }
]
}
