{
"type": "FeatureCollection",
"name": "cycle_suburbs",
"crs": { "type": "name", "properties": { "name": "urn:ogc:def:crs:OGC:1.3:CRS84" } },
"features": [
{ "type": "Feature", "properties": { "suburb": "Horokiwi", "trips_godutch": 6442.14, "trips_census": 791.67, "pct_all_ages": 0.53, "pct_confident": 34.82, "trips_to_cbd": 717.34, "pct_cbd_all_ages": 0.0, "unconnected_trips": 5113.39, "median_effort_km": 17.28, "median_dist_km": 14.38, "n_homes": 683, "blocker1": "Hutt Road", "blocker1_trips": 6041.56, "blocker2": "Hutt Road Shared Path", "blocker2_trips": 3048.24, "blocker3": "Aotea Quay", "blocker3_trips": 2102.34, "project1": "Hutt Road", "project1_treatment": "Protected lane", "project1_cost_m": 4.89, "project1_rank": 121.0, "project2": "Woodridge Drive", "project2_treatment": "Protected lane", "project2_cost_m": 1.37, "project2_rank": 181.0, "project3": "Grenada Drive", "project3_treatment": "Protected lane", "project3_cost_m": 2.49, "project3_rank": 211.0, "card": "1% of potential trips from Horokiwi (6,442 a weekday) have an all-ages route; 35% do for confident riders, and 0% of trips to the CBD do. The main blockers are Hutt Road, Hutt Road Shared Path and Aotea Quay. Best-value fixes: Hutt Road (protected lane, about $4.9M); Woodridge Drive (protected lane, about $1.4M); Grenada Drive (protected lane, about $2.5M)." }, "geometry": { "type": "Point", "coordinates": [ 174.837603463788298, -41.206475399477526 ] } },
{ "type": "Feature", "properties": { "suburb": "Tawa", "trips_godutch": 4840.72, "trips_census": 361.43, "pct_all_ages": 0.18, "pct_confident": 2.85, "trips_to_cbd": 455.88, "pct_cbd_all_ages": 0.0, "unconnected_trips": 4359.72, "median_effort_km": 23.49, "median_dist_km": 17.77, "n_homes": 494, "blocker1": "Middleton Road", "blocker1_trips": 5893.3, "blocker2": "Willowbank Road", "blocker2_trips": 2993.45, "blocker3": "Main Road", "blocker3_trips": 2954.28, "project1": "Duncan Street", "project1_treatment": "Quiet street (30 km/h + filter)", "project1_cost_m": 0.07, "project1_rank": 24.0, "project2": "Oxford Street", "project2_treatment": "Quiet street (30 km/h + filter)", "project2_cost_m": 0.22, "project2_rank": 28.0, "project3": "McLellan Street", "project3_treatment": "Quiet street (30 km/h + filter)", "project3_cost_m": 0.1, "project3_rank": 57.0, "card": "0% of potential trips from Tawa (4,841 a weekday) have an all-ages route; 3% do for confident riders, and 0% of trips to the CBD do. The main blockers are Middleton Road, Willowbank Road and Main Road. Best-value fixes: Duncan Street (quiet street (30 km/h + filter), about $0.07M); Oxford Street (quiet street (30 km/h + filter), about $0.22M); McLellan Street (quiet street (30 km/h + filter), about $0.10M)." }, "geometry": { "type": "Point", "coordinates": [ 174.811460914877642, -41.172467163394856 ] } },
{ "type": "Feature", "properties": { "suburb": "Karori", "trips_godutch": 3384.15, "trips_census": 568.8, "pct_all_ages": 0.58, "pct_confident": 4.56, "trips_to_cbd": 482.15, "pct_cbd_all_ages": 0.0, "unconnected_trips": 3102.78, "median_effort_km": 13.62, "median_dist_km": 9.33, "n_homes": 419, "blocker1": "Karori Road", "blocker1_trips": 2181.63, "blocker2": "Chaytor Street", "blocker2_trips": 1988.07, "blocker3": "Churchill Drive", "blocker3_trips": 1169.0, "project1": "Friend Street", "project1_treatment": "Quiet street (30 km/h + filter)", "project1_cost_m": 0.13, "project1_rank": 43.0, "project2": "Karori Road", "project2_treatment": "Protected lane", "project2_cost_m": 0.36, "project2_rank": 44.0, "project3": "Glenmore Street", "project3_treatment": "Protected lane", "project3_cost_m": 0.28, "project3_rank": 48.0, "card": "1% of potential trips from Karori (3,384 a weekday) have an all-ages route; 5% do for confident riders, and 0% of trips to the CBD do. The main blockers are Karori Road, Chaytor Street and Churchill Drive. Best-value fixes: Friend Street (quiet street (30 km/h + filter), about $0.13M); Karori Road (protected lane, about $0.36M); Glenmore Street (protected lane, about $0.28M)." }, "geometry": { "type": "Point", "coordinates": [ 174.736139688362073, -41.260719476662068 ] } },
{ "type": "Feature", "properties": { "suburb": "Te Aro", "trips_godutch": 3122.56, "trips_census": 280.65, "pct_all_ages": 9.77, "pct_confident": 26.89, "trips_to_cbd": 549.48, "pct_cbd_all_ages": 27.21, "unconnected_trips": 2648.63, "median_effort_km": 8.57, "median_dist_km": 5.4, "n_homes": 261, "blocker1": "Customhouse Quay", "blocker1_trips": 1243.14, "blocker2": "Waterloo Quay", "blocker2_trips": 1181.73, "blocker3": "Aotea Quay", "blocker3_trips": 1119.45, "project1": "Manners Street", "project1_treatment": "Quiet street (30 km/h + filter)", "project1_cost_m": 0.05, "project1_rank": 2.0, "project2": "Devon Street", "project2_treatment": "Quiet street (30 km/h + filter)", "project2_cost_m": 0.09, "project2_rank": 3.0, "project3": "Wakefield Street", "project3_treatment": "Protected lane", "project3_cost_m": 1.42, "project3_rank": 18.0, "card": "10% of potential trips from Te Aro (3,123 a weekday) have an all-ages route; 27% do for confident riders. The main blockers are Customhouse Quay, Waterloo Quay and Aotea Quay. Best-value fixes: Manners Street (quiet street (30 km/h + filter), about $0.05M); Devon Street (quiet street (30 km/h + filter), about $0.09M); Wakefield Street (protected lane, about $1.4M)." }, "geometry": { "type": "Point", "coordinates": [ 174.782010133454435, -41.294453496005133 ] } },
{ "type": "Feature", "properties": { "suburb": "Mt Victoria", "trips_godutch": 2632.06, "trips_census": 365.81, "pct_all_ages": 13.22, "pct_confident": 44.72, "trips_to_cbd": 340.43, "pct_cbd_all_ages": 43.82, "unconnected_trips": 2140.35, "median_effort_km": 10.12, "median_dist_km": 6.37, "n_homes": 129, "blocker1": "Wakefield Street", "blocker1_trips": 1185.62, "blocker2": "Cambridge Terrace", "blocker2_trips": 1177.07, "blocker3": "Jervois Quay", "blocker3_trips": 1151.51, "project1": "Adelaide Road", "project1_treatment": "Protected lane", "project1_cost_m": 1.32, "project1_rank": 5.0, "project2": "Wakefield Street", "project2_treatment": "Protected lane", "project2_cost_m": 1.42, "project2_rank": 18.0, "project3": "College Street", "project3_treatment": "Quiet street (30 km/h + filter)", "project3_cost_m": 0.05, "project3_rank": 19.0, "card": "13% of potential trips from Mt Victoria (2,632 a weekday) have an all-ages route; 45% do for confident riders, and 44% of trips to the CBD do. The main blockers are Wakefield Street, Cambridge Terrace and Jervois Quay. Best-value fixes: Adelaide Road (protected lane, about $1.3M); Wakefield Street (protected lane, about $1.4M); College Street (quiet street (30 km/h + filter), about $0.05M)." }, "geometry": { "type": "Point", "coordinates": [ 174.789618858698759, -41.299521966580109 ] } },
{ "type": "Feature", "properties": { "suburb": "Johnsonville", "trips_godutch": 2452.35, "trips_census": 389.54, "pct_all_ages": 0.39, "pct_confident": 39.47, "trips_to_cbd": 289.1, "pct_cbd_all_ages": 0.0, "unconnected_trips": 2328.2, "median_effort_km": 12.01, "median_dist_km": 10.41, "n_homes": 273, "blocker1": "Centennial Highway", "blocker1_trips": 1438.28, "blocker2": "Hutt Road Shared Path", "blocker2_trips": 1085.08, "blocker3": "Aotea Quay", "blocker3_trips": 932.79, "project1": "Moorefield Road", "project1_treatment": "Protected lane", "project1_cost_m": 0.25, "project1_rank": 31.0, "project2": "Frankmoore Avenue", "project2_treatment": "Quiet street (30 km/h + filter)", "project2_cost_m": 0.1, "project2_rank": 64.0, "project3": "Bassett Road", "project3_treatment": "Protected lane", "project3_cost_m": 0.56, "project3_rank": 73.0, "card": "0% of potential trips from Johnsonville (2,452 a weekday) have an all-ages route; 39% do for confident riders, and 0% of trips to the CBD do. The main blockers are Centennial Highway, Hutt Road Shared Path and Aotea Quay. Best-value fixes: Moorefield Road (protected lane, about $0.25M); Frankmoore Avenue (quiet street (30 km/h + filter), about $0.10M); Bassett Road (protected lane, about $0.56M)." }, "geometry": { "type": "Point", "coordinates": [ 174.797023658026859, -41.230446305867375 ] } },
{ "type": "Feature", "properties": { "suburb": "Newlands", "trips_godutch": 2186.88, "trips_census": 204.79, "pct_all_ages": 0.88, "pct_confident": 38.56, "trips_to_cbd": 156.77, "pct_cbd_all_ages": 0.0, "unconnected_trips": 2066.19, "median_effort_km": 11.59, "median_dist_km": 9.65, "n_homes": 166, "blocker1": "Ngauranga Gorge Shared Path", "blocker1_trips": 1308.64, "blocker2": "Centennial Highway", "blocker2_trips": 1063.31, "blocker3": "Hutt Road Shared Path", "blocker3_trips": 917.72, "project1": "Bracken Road", "project1_treatment": "Protected lane", "project1_cost_m": 1.41, "project1_rank": 105.0, "project2": "Stewart Drive", "project2_treatment": "Protected lane", "project2_cost_m": 1.86, "project2_rank": 143.0, "project3": "Glanmire Road", "project3_treatment": "Quiet street (30 km/h + filter)", "project3_cost_m": 0.27, "project3_rank": 145.0, "card": "1% of potential trips from Newlands (2,187 a weekday) have an all-ages route; 39% do for confident riders, and 0% of trips to the CBD do. The main blockers are Ngauranga Gorge Shared Path, Centennial Highway and Hutt Road Shared Path. Best-value fixes: Bracken Road (protected lane, about $1.4M); Stewart Drive (protected lane, about $1.9M); Glanmire Road (quiet street (30 km/h + filter), about $0.27M)." }, "geometry": { "type": "Point", "coordinates": [ 174.833548296513726, -41.228737099493287 ] } },
{ "type": "Feature", "properties": { "suburb": "Newtown", "trips_godutch": 2164.61, "trips_census": 352.69, "pct_all_ages": 1.7, "pct_confident": 36.4, "trips_to_cbd": 267.8, "pct_cbd_all_ages": 1.4, "unconnected_trips": 1975.53, "median_effort_km": 10.39, "median_dist_km": 6.68, "n_homes": 180, "blocker1": "Newtown to City Cycleway", "blocker1_trips": 1482.14, "blocker2": "Adelaide Road", "blocker2_trips": 1198.55, "blocker3": "Wakefield Street", "blocker3_trips": 1048.32, "project1": "John Street", "project1_treatment": "Protected lane", "project1_cost_m": 0.42, "project1_rank": 4.0, "project2": "Adelaide Road", "project2_treatment": "Protected lane", "project2_cost_m": 1.32, "project2_rank": 5.0, "project3": "Wakefield Street", "project3_treatment": "Protected lane", "project3_cost_m": 1.42, "project3_rank": 18.0, "card": "2% of potential trips from Newtown (2,165 a weekday) have an all-ages route; 36% do for confident riders, and 1% of trips to the CBD do. The main blockers are Newtown to City Cycleway, Adelaide Road and Wakefield Street. Best-value fixes: John Street (protected lane, about $0.42M); Adelaide Road (protected lane, about $1.3M); Wakefield Street (protected lane, about $1.4M)." }, "geometry": { "type": "Point", "coordinates": [ 174.783051273695037, -41.307039143175857 ] } },
{ "type": "Feature", "properties": { "suburb": "Miramar", "trips_godutch": 1942.75, "trips_census": 303.5, "pct_all_ages": 0.27, "pct_confident": 40.01, "trips_to_cbd": 217.51, "pct_cbd_all_ages": 0.0, "unconnected_trips": 1875.71, "median_effort_km": 13.92, "median_dist_km": 10.0, "n_homes": 169, "blocker1": "Hamilton Road", "blocker1_trips": 1368.19, "blocker2": "Kupe Street", "blocker2_trips": 1362.1, "blocker3": "Moxham Avenue", "blocker3_trips": 1359.72, "project1": "Miro Street", "project1_treatment": "Quiet street (30 km/h + filter)", "project1_cost_m": 0.11, "project1_rank": 7.0, "project2": "Rex Street", "project2_treatment": "Quiet street (30 km/h + filter)", "project2_cost_m": 0.1, "project2_rank": 30.0, "project3": "Brussels Street", "project3_treatment": "Quiet street (30 km/h + filter)", "project3_cost_m": 0.1, "project3_rank": 34.0, "card": "0% of potential trips from Miramar (1,943 a weekday) have an all-ages route; 40% do for confident riders, and 0% of trips to the CBD do. The main blockers are Hamilton Road, Kupe Street and Moxham Avenue. Best-value fixes: Miro Street (quiet street (30 km/h + filter), about $0.11M); Rex Street (quiet street (30 km/h + filter), about $0.10M); Brussels Street (quiet street (30 km/h + filter), about $0.10M)." }, "geometry": { "type": "Point", "coordinates": [ 174.814373504863738, -41.325532053563379 ] } },
{ "type": "Feature", "properties": { "suburb": "Mt Cook", "trips_godutch": 1702.74, "trips_census": 296.96, "pct_all_ages": 5.11, "pct_confident": 29.41, "trips_to_cbd": 296.34, "pct_cbd_all_ages": 13.11, "unconnected_trips": 1550.74, "median_effort_km": 8.17, "median_dist_km": 5.38, "n_homes": 150, "blocker1": "Customhouse Quay", "blocker1_trips": 732.84, "blocker2": "Waterloo Quay", "blocker2_trips": 645.11, "blocker3": "Aotea Quay", "blocker3_trips": 606.95, "project1": "John Street", "project1_treatment": "Protected lane", "project1_cost_m": 0.42, "project1_rank": 4.0, "project2": "Adelaide Road", "project2_treatment": "Protected lane", "project2_cost_m": 1.32, "project2_rank": 5.0, "project3": "Willis Street", "project3_treatment": "Protected lane", "project3_cost_m": 2.0, "project3_rank": 20.0, "card": "5% of potential trips from Mt Cook (1,703 a weekday) have an all-ages route; 29% do for confident riders, and 13% of trips to the CBD do. The main blockers are Customhouse Quay, Waterloo Quay and Aotea Quay. Best-value fixes: John Street (protected lane, about $0.42M); Adelaide Road (protected lane, about $1.3M); Willis Street (protected lane, about $2.0M)." }, "geometry": { "type": "Point", "coordinates": [ 174.771901301591242, -41.306708520122285 ] } },
{ "type": "Feature", "properties": { "suburb": "Brooklyn", "trips_godutch": 1585.56, "trips_census": 288.41, "pct_all_ages": 0.27, "pct_confident": 5.69, "trips_to_cbd": 226.4, "pct_cbd_all_ages": 0.7, "unconnected_trips": 1525.02, "median_effort_km": 11.01, "median_dist_km": 7.57, "n_homes": 150, "blocker1": "Willis Street", "blocker1_trips": 655.82, "blocker2": "Customhouse Quay", "blocker2_trips": 630.34, "blocker3": "Ohiro Road", "blocker3_trips": 589.65, "project1": "Willis Street", "project1_treatment": "Protected lane", "project1_cost_m": 2.0, "project1_rank": 20.0, "project2": "Customhouse Quay", "project2_treatment": "Protected lane", "project2_cost_m": 1.37, "project2_rank": 67.0, "project3": "McKinley Crescent", "project3_treatment": "Quiet street (30 km/h + filter)", "project3_cost_m": 0.07, "project3_rank": 89.0, "card": "0% of potential trips from Brooklyn (1,586 a weekday) have an all-ages route; 6% do for confident riders, and 1% of trips to the CBD do. The main blockers are Willis Street, Customhouse Quay and Ohiro Road. Best-value fixes: Willis Street (protected lane, about $2.0M); Customhouse Quay (protected lane, about $1.4M); McKinley Crescent (quiet street (30 km/h + filter), about $0.07M)." }, "geometry": { "type": "Point", "coordinates": [ 174.714248682917088, -41.32889087200823 ] } },
{ "type": "Feature", "properties": { "suburb": "Khandallah", "trips_godutch": 1487.4, "trips_census": 173.6, "pct_all_ages": 0.32, "pct_confident": 26.18, "trips_to_cbd": 204.67, "pct_cbd_all_ages": 0.39, "unconnected_trips": 1395.12, "median_effort_km": 11.32, "median_dist_km": 8.24, "n_homes": 169, "blocker1": "Aotea Quay", "blocker1_trips": 546.55, "blocker2": "Waterloo Quay", "blocker2_trips": 536.62, "blocker3": "Customhouse Quay", "blocker3_trips": 533.8, "project1": "Calcutta Street", "project1_treatment": "Quiet street (30 km/h + filter)", "project1_cost_m": 0.17, "project1_rank": 11.0, "project2": "Old Porirua Road", "project2_treatment": "Quiet street (30 km/h + filter)", "project2_cost_m": 0.26, "project2_rank": 27.0, "project3": "Cameron Street", "project3_treatment": "Quiet street (30 km/h + filter)", "project3_cost_m": 0.11, "project3_rank": 38.0, "card": "0% of potential trips from Khandallah (1,487 a weekday) have an all-ages route; 26% do for confident riders, and 0% of trips to the CBD do. The main blockers are Aotea Quay, Waterloo Quay and Customhouse Quay. Best-value fixes: Calcutta Street (quiet street (30 km/h + filter), about $0.17M); Old Porirua Road (quiet street (30 km/h + filter), about $0.26M); Cameron Street (quiet street (30 km/h + filter), about $0.11M)." }, "geometry": { "type": "Point", "coordinates": [ 174.801697229368131, -41.244645467349805 ] } },
{ "type": "Feature", "properties": { "suburb": "Kelburn", "trips_godutch": 1447.19, "trips_census": 175.63, "pct_all_ages": 2.54, "pct_confident": 16.4, "trips_to_cbd": 162.64, "pct_cbd_all_ages": 9.56, "unconnected_trips": 1348.64, "median_effort_km": 12.12, "median_dist_km": 7.75, "n_homes": 101, "blocker1": "The Terrace", "blocker1_trips": 520.89, "blocker2": "The Rigi", "blocker2_trips": 431.2, "blocker3": "Hutt Road", "blocker3_trips": 421.76, "project1": "Devon Street", "project1_treatment": "Quiet street (30 km/h + filter)", "project1_cost_m": 0.09, "project1_rank": 3.0, "project2": "Hill Street", "project2_treatment": "Quiet street (30 km/h + filter)", "project2_cost_m": 0.1, "project2_rank": 9.0, "project3": "Brandon Street", "project3_treatment": "Protected lane", "project3_cost_m": 0.25, "project3_rank": 13.0, "card": "3% of potential trips from Kelburn (1,447 a weekday) have an all-ages route; 16% do for confident riders, and 10% of trips to the CBD do. The main blockers are The Terrace, The Rigi and Hutt Road. Best-value fixes: Devon Street (quiet street (30 km/h + filter), about $0.09M); Hill Street (quiet street (30 km/h + filter), about $0.10M); Brandon Street (protected lane, about $0.25M)." }, "geometry": { "type": "Point", "coordinates": [ 174.765612568233422, -41.283712830524706 ] } },
{ "type": "Feature", "properties": { "suburb": "Seatoun", "trips_godutch": 1445.74, "trips_census": 161.07, "pct_all_ages": 0.09, "pct_confident": 30.19, "trips_to_cbd": 93.31, "pct_cbd_all_ages": 0.0, "unconnected_trips": 1135.37, "median_effort_km": 23.26, "median_dist_km": 15.19, "n_homes": 92, "blocker1": "Broadway", "blocker1_trips": 963.06, "blocker2": "Hamilton Road", "blocker2_trips": 826.02, "blocker3": "Kupe Street", "blocker3_trips": 824.52, "project1": "John Street", "project1_treatment": "Protected lane", "project1_cost_m": 0.42, "project1_rank": 4.0, "project2": "Adelaide Road", "project2_treatment": "Protected lane", "project2_cost_m": 1.32, "project2_rank": 5.0, "project3": "Hamilton Road", "project3_treatment": "Protected lane", "project3_cost_m": 1.37, "project3_rank": 66.0, "card": "0% of potential trips from Seatoun (1,446 a weekday) have an all-ages route; 30% do for confident riders, and 0% of trips to the CBD do. The main blockers are Broadway, Hamilton Road and Kupe Street. Best-value fixes: John Street (protected lane, about $0.42M); Adelaide Road (protected lane, about $1.3M); Hamilton Road (protected lane, about $1.4M)." }, "geometry": { "type": "Point", "coordinates": [ 174.829849898637946, -41.323124998595162 ] } },
{ "type": "Feature", "properties": { "suburb": "Kilbirnie", "trips_godutch": 1313.52, "trips_census": 102.99, "pct_all_ages": 10.87, "pct_confident": 48.23, "trips_to_cbd": 126.85, "pct_cbd_all_ages": 23.26, "unconnected_trips": 919.9, "median_effort_km": 14.57, "median_dist_km": 8.73, "n_homes": 83, "blocker1": "Moxham Avenue", "blocker1_trips": 547.1, "blocker2": "Taurima Street", "blocker2_trips": 542.28, "blocker3": "Mount Victoria Tunnel Shared Path", "blocker3_trips": 542.0, "project1": "Tacy Street", "project1_treatment": "Quiet street (30 km/h + filter)", "project1_cost_m": 0.05, "project1_rank": 12.0, "project2": "Te Whiti Street", "project2_treatment": "Quiet street (30 km/h + filter)", "project2_cost_m": 0.05, "project2_rank": 14.0, "project3": "Freyberg Street", "project3_treatment": "Quiet street (30 km/h + filter)", "project3_cost_m": 0.16, "project3_rank": 15.0, "card": "11% of potential trips from Kilbirnie (1,314 a weekday) have an all-ages route; 48% do for confident riders, and 23% of trips to the CBD do. The main blockers are Moxham Avenue, Taurima Street and Mount Victoria Tunnel Shared Path. Best-value fixes: Tacy Street (quiet street (30 km/h + filter), about $0.05M); Te Whiti Street (quiet street (30 km/h + filter), about $0.05M); Freyberg Street (quiet street (30 km/h + filter), about $0.16M)." }, "geometry": { "type": "Point", "coordinates": [ 174.798672531286485, -41.315392570599606 ] } },
{ "type": "Feature", "properties": { "suburb": "Kaiwharawhara", "trips_godutch": 1271.04, "trips_census": 97.69, "pct_all_ages": 13.81, "pct_confident": 35.78, "trips_to_cbd": 117.94, "pct_cbd_all_ages": 40.24, "unconnected_trips": 961.64, "median_effort_km": 11.45, "median_dist_km": 8.6, "n_homes": 58, "blocker1": "Hutt Road", "blocker1_trips": 508.96, "blocker2": "Middleton Road", "blocker2_trips": 410.47, "blocker3": "Centennial Highway", "blocker3_trips": 351.66, "project1": "Calcutta Street", "project1_treatment": "Quiet street (30 km/h + filter)", "project1_cost_m": 0.17, "project1_rank": 11.0, "project2": "Old Porirua Road", "project2_treatment": "Quiet street (30 km/h + filter)", "project2_cost_m": 0.26, "project2_rank": 27.0, "project3": "Sar Street", "project3_treatment": "Quiet street (30 km/h + filter)", "project3_cost_m": 0.17, "project3_rank": 35.0, "card": "14% of potential trips from Kaiwharawhara (1,271 a weekday) have an all-ages route; 36% do for confident riders, and 40% of trips to the CBD do. The main blockers are Hutt Road, Middleton Road and Centennial Highway. Best-value fixes: Calcutta Street (quiet street (30 km/h + filter), about $0.17M); Old Porirua Road (quiet street (30 km/h + filter), about $0.26M); Sar Street (quiet street (30 km/h + filter), about $0.17M)." }, "geometry": { "type": "Point", "coordinates": [ 174.786494797541792, -41.256907379772102 ] } },
{ "type": "Feature", "properties": { "suburb": "Island Bay", "trips_godutch": 1247.14, "trips_census": 346.7, "pct_all_ages": 0.2, "pct_confident": 6.54, "trips_to_cbd": 174.37, "pct_cbd_all_ages": 0.0, "unconnected_trips": 1198.98, "median_effort_km": 12.47, "median_dist_km": 8.97, "n_homes": 149, "blocker1": "The Parade", "blocker1_trips": 981.24, "blocker2": "Newtown to City Cycleway", "blocker2_trips": 919.21, "blocker3": "Adelaide Road", "blocker3_trips": 754.77, "project1": "Adelaide Road", "project1_treatment": "Protected lane", "project1_cost_m": 1.32, "project1_rank": 5.0, "project2": "Severn Street", "project2_treatment": "Protected lane", "project2_cost_m": 1.79, "project2_rank": 83.0, "project3": "The Esplanade", "project3_treatment": "Protected lane", "project3_cost_m": 2.72, "project3_rank": 127.0, "card": "0% of potential trips from Island Bay (1,247 a weekday) have an all-ages route; 7% do for confident riders, and 0% of trips to the CBD do. The main blockers are The Parade, Newtown to City Cycleway and Adelaide Road. Best-value fixes: Adelaide Road (protected lane, about $1.3M); Severn Street (protected lane, about $1.8M); The Esplanade (protected lane, about $2.7M)." }, "geometry": { "type": "Point", "coordinates": [ 174.768362997042033, -41.33092180161966 ] } },
{ "type": "Feature", "properties": { "suburb": "Churton Park", "trips_godutch": 1120.42, "trips_census": 136.14, "pct_all_ages": 0.22, "pct_confident": 34.37, "trips_to_cbd": 128.14, "pct_cbd_all_ages": 0.0, "unconnected_trips": 1041.38, "median_effort_km": 15.47, "median_dist_km": 12.31, "n_homes": 177, "blocker1": "Johnsonville Road", "blocker1_trips": 667.6, "blocker2": "Centennial Highway", "blocker2_trips": 613.49, "blocker3": "Middleton Road", "blocker3_trips": 585.63, "project1": "Burbank Crescent", "project1_treatment": "Quiet street (30 km/h + filter)", "project1_cost_m": 0.11, "project1_rank": 61.0, "project2": "Bassett Road", "project2_treatment": "Protected lane", "project2_cost_m": 0.56, "project2_rank": 73.0, "project3": "Churton Drive", "project3_treatment": "Quiet street (30 km/h + filter)", "project3_cost_m": 0.2, "project3_rank": 92.0, "card": "0% of potential trips from Churton Park (1,120 a weekday) have an all-ages route; 34% do for confident riders, and 0% of trips to the CBD do. The main blockers are Johnsonville Road, Centennial Highway and Middleton Road. Best-value fixes: Burbank Crescent (quiet street (30 km/h + filter), about $0.11M); Bassett Road (protected lane, about $0.56M); Churton Drive (quiet street (30 km/h + filter), about $0.20M)." }, "geometry": { "type": "Point", "coordinates": [ 174.80598880020807, -41.195287481250389 ] } },
{ "type": "Feature", "properties": { "suburb": "Wellington Central", "trips_godutch": 1085.94, "trips_census": 137.28, "pct_all_ages": 11.76, "pct_confident": 32.9, "trips_to_cbd": 180.71, "pct_cbd_all_ages": 26.57, "unconnected_trips": 839.76, "median_effort_km": 8.82, "median_dist_km": 5.53, "n_homes": 106, "blocker1": "Customhouse Quay", "blocker1_trips": 317.51, "blocker2": "Hutt Road", "blocker2_trips": 282.76, "blocker3": "Jervois Quay", "blocker3_trips": 276.43, "project1": "Stout Street", "project1_treatment": "Quiet street (30 km/h + filter)", "project1_cost_m": 0.07, "project1_rank": 1.0, "project2": "Manners Street", "project2_treatment": "Quiet street (30 km/h + filter)", "project2_cost_m": 0.05, "project2_rank": 2.0, "project3": "Bowen Street", "project3_treatment": "Protected lane", "project3_cost_m": 0.25, "project3_rank": 6.0, "card": "12% of potential trips from Wellington Central (1,086 a weekday) have an all-ages route; 33% do for confident riders. The main blockers are Customhouse Quay, Hutt Road and Jervois Quay. Best-value fixes: Stout Street (quiet street (30 km/h + filter), about $0.07M); Manners Street (quiet street (30 km/h + filter), about $0.05M); Bowen Street (protected lane, about $0.25M)." }, "geometry": { "type": "Point", "coordinates": [ 174.779449939454651, -41.285894036989035 ] } },
{ "type": "Feature", "properties": { "suburb": "Thorndon", "trips_godutch": 913.38, "trips_census": 170.13, "pct_all_ages": 5.6, "pct_confident": 24.93, "trips_to_cbd": 119.8, "pct_cbd_all_ages": 18.76, "unconnected_trips": 829.43, "median_effort_km": 10.31, "median_dist_km": 6.49, "n_homes": 101, "blocker1": "Tinakori Road", "blocker1_trips": 367.84, "blocker2": "Hutt Road", "blocker2_trips": 296.85, "blocker3": "Whitmore Street", "blocker3_trips": 258.49, "project1": "Stout Street", "project1_treatment": "Quiet street (30 km/h + filter)", "project1_cost_m": 0.07, "project1_rank": 1.0, "project2": "Bowen Street", "project2_treatment": "Protected lane", "project2_cost_m": 0.25, "project2_rank": 6.0, "project3": "Bunny Street", "project3_treatment": "Protected lane", "project3_cost_m": 0.53, "project3_rank": 8.0, "card": "6% of potential trips from Thorndon (913 a weekday) have an all-ages route; 25% do for confident riders, and 19% of trips to the CBD do. The main blockers are Tinakori Road, Hutt Road and Whitmore Street. Best-value fixes: Stout Street (quiet street (30 km/h + filter), about $0.07M); Bowen Street (protected lane, about $0.25M); Bunny Street (protected lane, about $0.53M)." }, "geometry": { "type": "Point", "coordinates": [ 174.771087931233495, -41.27274996508644 ] } },
{ "type": "Feature", "properties": { "suburb": "Wilton", "trips_godutch": 840.2, "trips_census": 157.38, "pct_all_ages": 1.17, "pct_confident": 6.88, "trips_to_cbd": 142.82, "pct_cbd_all_ages": 3.7, "unconnected_trips": 801.28, "median_effort_km": 11.57, "median_dist_km": 7.64, "n_homes": 70, "blocker1": "Wilton Road", "blocker1_trips": 509.59, "blocker2": "Churchill Drive", "blocker2_trips": 324.94, "blocker3": "Wadestown Road", "blocker3_trips": 319.15, "project1": "Chaytor Street", "project1_treatment": "Protected lane", "project1_cost_m": 0.58, "project1_rank": 56.0, "project2": "Mairangi Road", "project2_treatment": "Quiet street (30 km/h + filter)", "project2_cost_m": 0.29, "project2_rank": 97.0, "project3": "Pembroke Road", "project3_treatment": "Quiet street (30 km/h + filter)", "project3_cost_m": 0.33, "project3_rank": 119.0, "card": "1% of potential trips from Wilton (840 a weekday) have an all-ages route; 7% do for confident riders, and 4% of trips to the CBD do. The main blockers are Wilton Road, Churchill Drive and Wadestown Road. Best-value fixes: Chaytor Street (protected lane, about $0.58M); Mairangi Road (quiet street (30 km/h + filter), about $0.29M); Pembroke Road (quiet street (30 km/h + filter), about $0.33M)." }, "geometry": { "type": "Point", "coordinates": [ 174.750002442976808, -41.261400150166523 ] } },
{ "type": "Feature", "properties": { "suburb": "Strathmore Park", "trips_godutch": 819.42, "trips_census": 125.79, "pct_all_ages": 0.07, "pct_confident": 24.0, "trips_to_cbd": 145.01, "pct_cbd_all_ages": 0.0, "unconnected_trips": 787.05, "median_effort_km": 13.01, "median_dist_km": 9.66, "n_homes": 69, "blocker1": "Broadway", "blocker1_trips": 959.73, "blocker2": "Coutts Street", "blocker2_trips": 718.73, "blocker3": "Salek Street", "blocker3_trips": 499.01, "project1": "Strathavon Road", "project1_treatment": "Quiet street (30 km/h + filter)", "project1_cost_m": 0.11, "project1_rank": 36.0, "project2": "Raukawa Street", "project2_treatment": "Quiet street (30 km/h + filter)", "project2_cost_m": 0.16, "project2_rank": 94.0, "project3": "Glamis Avenue", "project3_treatment": "Quiet street (30 km/h + filter)", "project3_cost_m": 0.07, "project3_rank": 95.0, "card": "0% of potential trips from Strathmore Park (819 a weekday) have an all-ages route; 24% do for confident riders, and 0% of trips to the CBD do. The main blockers are Broadway, Coutts Street and Salek Street. Best-value fixes: Strathavon Road (quiet street (30 km/h + filter), about $0.11M); Raukawa Street (quiet street (30 km/h + filter), about $0.16M); Glamis Avenue (quiet street (30 km/h + filter), about $0.07M)." }, "geometry": { "type": "Point", "coordinates": [ 174.825149203325111, -41.32596127635324 ] } },
{ "type": "Feature", "properties": { "suburb": "Wadestown", "trips_godutch": 792.59, "trips_census": 206.12, "pct_all_ages": 0.11, "pct_confident": 14.57, "trips_to_cbd": 132.6, "pct_cbd_all_ages": 0.07, "unconnected_trips": 751.88, "median_effort_km": 10.73, "median_dist_km": 7.2, "n_homes": 89, "blocker1": "Wadestown Road", "blocker1_trips": 494.29, "blocker2": "Grant Road", "blocker2_trips": 369.51, "blocker3": "Murphy Street", "blocker3_trips": 351.37, "project1": "Old Porirua Road", "project1_treatment": "Quiet street (30 km/h + filter)", "project1_cost_m": 0.26, "project1_rank": 27.0, "project2": "Murphy Street", "project2_treatment": "Protected lane", "project2_cost_m": 0.25, "project2_rank": 29.0, "project3": "Sar Street", "project3_treatment": "Quiet street (30 km/h + filter)", "project3_cost_m": 0.17, "project3_rank": 35.0, "card": "0% of potential trips from Wadestown (793 a weekday) have an all-ages route; 15% do for confident riders, and 0% of trips to the CBD do. The main blockers are Wadestown Road, Grant Road and Murphy Street. Best-value fixes: Old Porirua Road (quiet street (30 km/h + filter), about $0.26M); Murphy Street (protected lane, about $0.25M); Sar Street (quiet street (30 km/h + filter), about $0.17M)." }, "geometry": { "type": "Point", "coordinates": [ 174.767666208241764, -41.261085282841492 ] } },
{ "type": "Feature", "properties": { "suburb": "Grenada North", "trips_godutch": 733.44, "trips_census": 20.69, "pct_all_ages": 0.41, "pct_confident": 1.68, "trips_to_cbd": 45.43, "pct_cbd_all_ages": 0.0, "unconnected_trips": 618.9, "median_effort_km": 17.6, "median_dist_km": 15.43, "n_homes": 55, "blocker1": "Middleton Road", "blocker1_trips": 869.72, "blocker2": "Takapu Road", "blocker2_trips": 600.54, "blocker3": "Jamaica Drive", "blocker3_trips": 527.36, "project1": "Takapu Road", "project1_treatment": "Protected lane", "project1_cost_m": 11.75, "project1_rank": 68.0, "project2": "Bing Lucas Drive", "project2_treatment": "Quiet street (30 km/h + filter)", "project2_cost_m": 0.2, "project2_rank": 179.0, "project3": "Middleton Road", "project3_treatment": "Protected lane", "project3_cost_m": 6.72, "project3_rank": 188.0, "card": "0% of potential trips from Grenada North (733 a weekday) have an all-ages route; 2% do for confident riders. The main blockers are Middleton Road, Takapu Road and Jamaica Drive. Best-value fixes: Takapu Road (protected lane, about $11.7M); Bing Lucas Drive (quiet street (30 km/h + filter), about $0.20M); Middleton Road (protected lane, about $6.7M)." }, "geometry": { "type": "Point", "coordinates": [ 174.846985143318477, -41.191038078200982 ] } },
{ "type": "Feature", "properties": { "suburb": "Ngaio", "trips_godutch": 732.95, "trips_census": 109.48, "pct_all_ages": 0.17, "pct_confident": 6.89, "trips_to_cbd": 118.4, "pct_cbd_all_ages": 0.0, "unconnected_trips": 694.82, "median_effort_km": 12.32, "median_dist_km": 8.33, "n_homes": 82, "blocker1": "Ngaio Gorge Road", "blocker1_trips": 416.57, "blocker2": "Kaiwharawhara Road", "blocker2_trips": 410.74, "blocker3": "Kenya Street", "blocker3_trips": 351.21, "project1": "Old Porirua Road", "project1_treatment": "Quiet street (30 km/h + filter)", "project1_cost_m": 0.26, "project1_rank": 27.0, "project2": "Kaiwharawhara Road", "project2_treatment": "Protected lane", "project2_cost_m": 0.27, "project2_rank": 59.0, "project3": "Lucknow Terrace", "project3_treatment": "Quiet street (30 km/h + filter)", "project3_cost_m": 0.09, "project3_rank": 159.0, "card": "0% of potential trips from Ngaio (733 a weekday) have an all-ages route; 7% do for confident riders, and 0% of trips to the CBD do. The main blockers are Ngaio Gorge Road, Kaiwharawhara Road and Kenya Street. Best-value fixes: Old Porirua Road (quiet street (30 km/h + filter), about $0.26M); Kaiwharawhara Road (protected lane, about $0.27M); Lucknow Terrace (quiet street (30 km/h + filter), about $0.09M)." }, "geometry": { "type": "Point", "coordinates": [ 174.768311351851594, -41.241190529353716 ] } },
{ "type": "Feature", "properties": { "suburb": "Takapu Valley", "trips_godutch": 711.58, "trips_census": 66.27, "pct_all_ages": 0.05, "pct_confident": 2.83, "trips_to_cbd": 88.46, "pct_cbd_all_ages": 0.0, "unconnected_trips": 664.61, "median_effort_km": 22.79, "median_dist_km": 18.58, "n_homes": 97, "blocker1": "Takapu Road", "blocker1_trips": 477.41, "blocker2": "Korokoro Road", "blocker2_trips": 384.43, "blocker3": "London Road", "blocker3_trips": 382.23, "project1": "Takapu Road", "project1_treatment": "Protected lane", "project1_cost_m": 11.75, "project1_rank": 68.0, "project2": "Bing Lucas Drive", "project2_treatment": "Quiet street (30 km/h + filter)", "project2_cost_m": 0.2, "project2_rank": 179.0, "project3": "Bing Lucas Drive at ", "project3_treatment": "Raised zebra / refuge", "project3_cost_m": 0.25, "project3_rank": 227.0, "card": "0% of potential trips from Takapu Valley (712 a weekday) have an all-ages route; 3% do for confident riders, and 0% of trips to the CBD do. The main blockers are Takapu Road, Korokoro Road and London Road. Best-value fixes: Takapu Road (protected lane, about $11.7M); Bing Lucas Drive (quiet street (30 km/h + filter), about $0.20M); Bing Lucas Drive at  (raised zebra / refuge, about $0.25M)." }, "geometry": { "type": "Point", "coordinates": [ 174.869730104854028, -41.161289198525971 ] } },
{ "type": "Feature", "properties": { "suburb": "Grenada Village", "trips_godutch": 704.76, "trips_census": 93.91, "pct_all_ages": 0.03, "pct_confident": 19.01, "trips_to_cbd": 65.5, "pct_cbd_all_ages": 0.0, "unconnected_trips": 679.93, "median_effort_km": 16.71, "median_dist_km": 12.15, "n_homes": 59, "blocker1": "Mark Avenue", "blocker1_trips": 462.24, "blocker2": "Centennial Highway", "blocker2_trips": 374.71, "blocker3": "Helston Road", "blocker3_trips": 349.8, "project1": "Westchester Drive", "project1_treatment": "Protected lane", "project1_cost_m": 3.53, "project1_rank": 158.0, "project2": "Helston Road", "project2_treatment": "Protected lane", "project2_cost_m": 3.13, "project2_rank": 178.0, "project3": "Mark Avenue", "project3_treatment": "Protected lane", "project3_cost_m": 3.75, "project3_rank": 180.0, "card": "0% of potential trips from Grenada Village (705 a weekday) have an all-ages route; 19% do for confident riders, and 0% of trips to the CBD do. The main blockers are Mark Avenue, Centennial Highway and Helston Road. Best-value fixes: Westchester Drive (protected lane, about $3.5M); Helston Road (protected lane, about $3.1M); Mark Avenue (protected lane, about $3.7M)." }, "geometry": { "type": "Point", "coordinates": [ 174.838211836280834, -41.197773953145592 ] } },
{ "type": "Feature", "properties": { "suburb": "Hataitai", "trips_godutch": 697.42, "trips_census": 192.97, "pct_all_ages": 7.0, "pct_confident": 36.71, "trips_to_cbd": 91.95, "pct_cbd_all_ages": 19.44, "unconnected_trips": 592.82, "median_effort_km": 10.51, "median_dist_km": 6.62, "n_homes": 97, "blocker1": "Wakefield Street", "blocker1_trips": 309.35, "blocker2": "Mount Victoria Tunnel Shared Path", "blocker2_trips": 301.29, "blocker3": "Jervois Quay", "blocker3_trips": 301.22, "project1": "Rata Road", "project1_treatment": "Quiet street (30 km/h + filter)", "project1_cost_m": 0.1, "project1_rank": 17.0, "project2": "Wakefield Street", "project2_treatment": "Protected lane", "project2_cost_m": 1.42, "project2_rank": 18.0, "project3": "Jervois Quay", "project3_treatment": "Protected lane", "project3_cost_m": 1.94, "project3_rank": 21.0, "card": "7% of potential trips from Hataitai (697 a weekday) have an all-ages route; 37% do for confident riders, and 19% of trips to the CBD do. The main blockers are Wakefield Street, Mount Victoria Tunnel Shared Path and Jervois Quay. Best-value fixes: Rata Road (quiet street (30 km/h + filter), about $0.10M); Wakefield Street (protected lane, about $1.4M); Jervois Quay (protected lane, about $1.9M)." }, "geometry": { "type": "Point", "coordinates": [ 174.800824327142152, -41.30576656225432 ] } },
{ "type": "Feature", "properties": { "suburb": "Berhampore", "trips_godutch": 690.25, "trips_census": 131.01, "pct_all_ages": 1.1, "pct_confident": 47.73, "trips_to_cbd": 112.55, "pct_cbd_all_ages": 0.0, "unconnected_trips": 640.21, "median_effort_km": 9.73, "median_dist_km": 6.78, "n_homes": 80, "blocker1": "Newtown to City Cycleway", "blocker1_trips": 516.87, "blocker2": "Adelaide Road", "blocker2_trips": 437.09, "blocker3": "Wakefield Street", "blocker3_trips": 325.9, "project1": "Adelaide Road", "project1_treatment": "Protected lane", "project1_cost_m": 1.32, "project1_rank": 5.0, "project2": "Wakefield Street", "project2_treatment": "Protected lane", "project2_cost_m": 1.42, "project2_rank": 18.0, "project3": "Russell Terrace", "project3_treatment": "Protected lane", "project3_cost_m": 0.37, "project3_rank": 42.0, "card": "1% of potential trips from Berhampore (690 a weekday) have an all-ages route; 48% do for confident riders, and 0% of trips to the CBD do. The main blockers are Newtown to City Cycleway, Adelaide Road and Wakefield Street. Best-value fixes: Adelaide Road (protected lane, about $1.3M); Wakefield Street (protected lane, about $1.4M); Russell Terrace (protected lane, about $0.37M)." }, "geometry": { "type": "Point", "coordinates": [ 174.783362846026307, -41.32478101535758 ] } },
{ "type": "Feature", "properties": { "suburb": "Maupuia", "trips_godutch": 666.54, "trips_census": 85.19, "pct_all_ages": 0.33, "pct_confident": 14.78, "trips_to_cbd": 73.53, "pct_cbd_all_ages": 0.0, "unconnected_trips": 516.94, "median_effort_km": 13.7, "median_dist_km": 10.19, "n_homes": 75, "blocker1": "Cobham Dr to Rongotai Cycleway", "blocker1_trips": 436.0, "blocker2": "Wellington Road", "blocker2_trips": 434.17, "blocker3": "Hamilton Road", "blocker3_trips": 399.22, "project1": "Rex Street", "project1_treatment": "Quiet street (30 km/h + filter)", "project1_cost_m": 0.1, "project1_rank": 30.0, "project2": "Brussels Street", "project2_treatment": "Quiet street (30 km/h + filter)", "project2_cost_m": 0.1, "project2_rank": 34.0, "project3": "Byron Street", "project3_treatment": "Quiet street (30 km/h + filter)", "project3_cost_m": 0.05, "project3_rank": 58.0, "card": "0% of potential trips from Maupuia (667 a weekday) have an all-ages route; 15% do for confident riders, and 0% of trips to the CBD do. The main blockers are Cobham Dr to Rongotai Cycleway, Wellington Road and Hamilton Road. Best-value fixes: Rex Street (quiet street (30 km/h + filter), about $0.10M); Brussels Street (quiet street (30 km/h + filter), about $0.10M); Byron Street (quiet street (30 km/h + filter), about $0.05M)." }, "geometry": { "type": "Point", "coordinates": [ 174.82240887654018, -41.298336896659357 ] } },
{ "type": "Feature", "properties": { "suburb": "Paparangi", "trips_godutch": 643.88, "trips_census": 120.67, "pct_all_ages": 0.05, "pct_confident": 15.91, "trips_to_cbd": 68.53, "pct_cbd_all_ages": 0.0, "unconnected_trips": 612.87, "median_effort_km": 13.88, "median_dist_km": 11.18, "n_homes": 67, "blocker1": "Helston Road", "blocker1_trips": 474.26, "blocker2": "Centennial Highway", "blocker2_trips": 384.45, "blocker3": "Hutt Road Shared Path", "blocker3_trips": 309.5, "project1": "Bracken Road", "project1_treatment": "Protected lane", "project1_cost_m": 1.41, "project1_rank": 105.0, "project2": "Stewart Drive", "project2_treatment": "Protected lane", "project2_cost_m": 1.86, "project2_rank": 143.0, "project3": "Newlands Road", "project3_treatment": "Protected lane", "project3_cost_m": 2.43, "project3_rank": 162.0, "card": "0% of potential trips from Paparangi (644 a weekday) have an all-ages route; 16% do for confident riders, and 0% of trips to the CBD do. The main blockers are Helston Road, Centennial Highway and Hutt Road Shared Path. Best-value fixes: Bracken Road (protected lane, about $1.4M); Stewart Drive (protected lane, about $1.9M); Newlands Road (protected lane, about $2.4M)." }, "geometry": { "type": "Point", "coordinates": [ 174.825129586561587, -41.217633098285773 ] } },
{ "type": "Feature", "properties": { "suburb": "Owhiro Bay", "trips_godutch": 611.15, "trips_census": 80.75, "pct_all_ages": 0.01, "pct_confident": 1.83, "trips_to_cbd": 64.04, "pct_cbd_all_ages": 0.0, "unconnected_trips": 580.49, "median_effort_km": 18.02, "median_dist_km": 11.32, "n_homes": 51, "blocker1": "Customhouse Quay", "blocker1_trips": 310.35, "blocker2": "Happy Valley Road", "blocker2_trips": 291.79, "blocker3": "Waterloo Quay", "blocker3_trips": 274.2, "project1": "Customhouse Quay", "project1_treatment": "Protected lane", "project1_cost_m": 1.37, "project1_rank": 67.0, "project2": "Severn Street", "project2_treatment": "Protected lane", "project2_cost_m": 1.79, "project2_rank": 83.0, "project3": "The Esplanade", "project3_treatment": "Protected lane", "project3_cost_m": 2.72, "project3_rank": 127.0, "card": "0% of potential trips from Owhiro Bay (611 a weekday) have an all-ages route; 2% do for confident riders, and 0% of trips to the CBD do. The main blockers are Customhouse Quay, Happy Valley Road and Waterloo Quay. Best-value fixes: Customhouse Quay (protected lane, about $1.4M); Severn Street (protected lane, about $1.8M); The Esplanade (protected lane, about $2.7M)." }, "geometry": { "type": "Point", "coordinates": [ 174.737776872872075, -41.334888595991423 ] } },
{ "type": "Feature", "properties": { "suburb": "Pipitea", "trips_godutch": 608.75, "trips_census": 72.2, "pct_all_ages": 11.41, "pct_confident": 40.23, "trips_to_cbd": 89.73, "pct_cbd_all_ages": 30.1, "unconnected_trips": 513.97, "median_effort_km": 10.46, "median_dist_km": 6.52, "n_homes": 66, "blocker1": "Hutt Road", "blocker1_trips": 206.35, "blocker2": "Customhouse Quay", "blocker2_trips": 179.34, "blocker3": "Jervois Quay", "blocker3_trips": 178.75, "project1": "Stout Street", "project1_treatment": "Quiet street (30 km/h + filter)", "project1_cost_m": 0.07, "project1_rank": 1.0, "project2": "Bowen Street", "project2_treatment": "Protected lane", "project2_cost_m": 0.25, "project2_rank": 6.0, "project3": "Bunny Street", "project3_treatment": "Protected lane", "project3_cost_m": 0.53, "project3_rank": 8.0, "card": "11% of potential trips from Pipitea (609 a weekday) have an all-ages route; 40% do for confident riders. The main blockers are Hutt Road, Customhouse Quay and Jervois Quay. Best-value fixes: Stout Street (quiet street (30 km/h + filter), about $0.07M); Bowen Street (protected lane, about $0.25M); Bunny Street (protected lane, about $0.53M)." }, "geometry": { "type": "Point", "coordinates": [ 174.775989783131308, -41.278096803790042 ] } },
{ "type": "Feature", "properties": { "suburb": "Rongotai", "trips_godutch": 562.62, "trips_census": 55.01, "pct_all_ages": 2.28, "pct_confident": 27.06, "trips_to_cbd": 46.49, "pct_cbd_all_ages": 8.46, "unconnected_trips": 429.12, "median_effort_km": 12.58, "median_dist_km": 9.24, "n_homes": 44, "blocker1": "Hamilton Road", "blocker1_trips": 254.82, "blocker2": "Kupe Street", "blocker2_trips": 254.45, "blocker3": "Moxham Avenue", "blocker3_trips": 254.17, "project1": "Miro Street", "project1_treatment": "Quiet street (30 km/h + filter)", "project1_cost_m": 0.11, "project1_rank": 7.0, "project2": "Te Whiti Street", "project2_treatment": "Quiet street (30 km/h + filter)", "project2_cost_m": 0.05, "project2_rank": 14.0, "project3": "Freyberg Street", "project3_treatment": "Quiet street (30 km/h + filter)", "project3_cost_m": 0.16, "project3_rank": 15.0, "card": "2% of potential trips from Rongotai (563 a weekday) have an all-ages route; 27% do for confident riders. The main blockers are Hamilton Road, Kupe Street and Moxham Avenue. Best-value fixes: Miro Street (quiet street (30 km/h + filter), about $0.11M); Te Whiti Street (quiet street (30 km/h + filter), about $0.05M); Freyberg Street (quiet street (30 km/h + filter), about $0.16M)." }, "geometry": { "type": "Point", "coordinates": [ 174.811303169881427, -41.328587135621618 ] } },
{ "type": "Feature", "properties": { "suburb": "Lyall Bay", "trips_godutch": 556.59, "trips_census": 115.28, "pct_all_ages": 8.93, "pct_confident": 38.51, "trips_to_cbd": 79.84, "pct_cbd_all_ages": 15.4, "unconnected_trips": 491.76, "median_effort_km": 10.84, "median_dist_km": 7.7, "n_homes": 54, "blocker1": "Kilbirnie Crescent", "blocker1_trips": 290.37, "blocker2": "Hamilton Road", "blocker2_trips": 290.35, "blocker3": "Kupe Street", "blocker3_trips": 289.73, "project1": "Freyberg Street", "project1_treatment": "Quiet street (30 km/h + filter)", "project1_cost_m": 0.16, "project1_rank": 15.0, "project2": "Hamilton Road", "project2_treatment": "Protected lane", "project2_cost_m": 1.37, "project2_rank": 66.0, "project3": "Sutherland Road", "project3_treatment": "Quiet street (30 km/h + filter)", "project3_cost_m": 0.32, "project3_rank": 70.0, "card": "9% of potential trips from Lyall Bay (557 a weekday) have an all-ages route; 39% do for confident riders, and 15% of trips to the CBD do. The main blockers are Kilbirnie Crescent, Hamilton Road and Kupe Street. Best-value fixes: Freyberg Street (quiet street (30 km/h + filter), about $0.16M); Hamilton Road (protected lane, about $1.4M); Sutherland Road (quiet street (30 km/h + filter), about $0.32M)." }, "geometry": { "type": "Point", "coordinates": [ 174.797739437780081, -41.326266149420015 ] } },
{ "type": "Feature", "properties": { "suburb": "Ngauranga", "trips_godutch": 543.56, "trips_census": 69.08, "pct_all_ages": 0.4, "pct_confident": 43.0, "trips_to_cbd": 56.16, "pct_cbd_all_ages": 0.0, "unconnected_trips": 512.32, "median_effort_km": 10.93, "median_dist_km": 7.99, "n_homes": 70, "blocker1": "Centennial Highway", "blocker1_trips": 274.86, "blocker2": "Hutt Road Shared Path", "blocker2_trips": 268.08, "blocker3": "Aotea Quay", "blocker3_trips": 186.88, "project1": "Burma Road", "project1_treatment": "Protected lane", "project1_cost_m": 2.44, "project1_rank": 100.0, "project2": "Hutt Road", "project2_treatment": "Protected lane", "project2_cost_m": 4.89, "project2_rank": 121.0, "project3": "Haumia Street", "project3_treatment": "Protected lane", "project3_cost_m": 1.07, "project3_rank": 123.0, "card": "0% of potential trips from Ngauranga (544 a weekday) have an all-ages route; 43% do for confident riders, and 0% of trips to the CBD do. The main blockers are Centennial Highway, Hutt Road Shared Path and Aotea Quay. Best-value fixes: Burma Road (protected lane, about $2.4M); Hutt Road (protected lane, about $4.9M); Haumia Street (protected lane, about $1.1M)." }, "geometry": { "type": "Point", "coordinates": [ 174.820613514268615, -41.240210559232914 ] } },
{ "type": "Feature", "properties": { "suburb": "Kingston", "trips_godutch": 488.58, "trips_census": 68.1, "pct_all_ages": 0.12, "pct_confident": 4.95, "trips_to_cbd": 47.72, "pct_cbd_all_ages": 0.0, "unconnected_trips": 471.76, "median_effort_km": 15.53, "median_dist_km": 9.33, "n_homes": 31, "blocker1": "Adelaide Road", "blocker1_trips": 249.77, "blocker2": "Customhouse Quay", "blocker2_trips": 246.39, "blocker3": "Priscilla Crescent", "blocker3_trips": 246.01, "project1": "Adelaide Road", "project1_treatment": "Protected lane", "project1_cost_m": 1.32, "project1_rank": 5.0, "project2": "Customhouse Quay", "project2_treatment": "Protected lane", "project2_cost_m": 1.37, "project2_rank": 67.0, "project3": "Britomart Street", "project3_treatment": "Protected lane", "project3_cost_m": 0.83, "project3_rank": 101.0, "card": "0% of potential trips from Kingston (489 a weekday) have an all-ages route; 5% do for confident riders. The main blockers are Adelaide Road, Customhouse Quay and Priscilla Crescent. Best-value fixes: Adelaide Road (protected lane, about $1.3M); Customhouse Quay (protected lane, about $1.4M); Britomart Street (protected lane, about $0.83M)." }, "geometry": { "type": "Point", "coordinates": [ 174.765612351938358, -41.322335447525504 ] } },
{ "type": "Feature", "properties": { "suburb": "Aro Valley", "trips_godutch": 475.38, "trips_census": 87.81, "pct_all_ages": 0.19, "pct_confident": 11.47, "trips_to_cbd": 81.7, "pct_cbd_all_ages": 0.26, "unconnected_trips": 453.12, "median_effort_km": 9.15, "median_dist_km": 5.95, "n_homes": 58, "blocker1": "Aro Street", "blocker1_trips": 398.64, "blocker2": "Willis Street", "blocker2_trips": 213.66, "blocker3": "Customhouse Quay", "blocker3_trips": 198.21, "project1": "Devon Street", "project1_treatment": "Quiet street (30 km/h + filter)", "project1_cost_m": 0.09, "project1_rank": 3.0, "project2": "Willis Street", "project2_treatment": "Protected lane", "project2_cost_m": 2.0, "project2_rank": 20.0, "project3": "The Terrace", "project3_treatment": "Protected lane", "project3_cost_m": 3.2, "project3_rank": 39.0, "card": "0% of potential trips from Aro Valley (475 a weekday) have an all-ages route; 11% do for confident riders, and 0% of trips to the CBD do. The main blockers are Aro Street, Willis Street and Customhouse Quay. Best-value fixes: Devon Street (quiet street (30 km/h + filter), about $0.09M); Willis Street (protected lane, about $2.0M); The Terrace (protected lane, about $3.2M)." }, "geometry": { "type": "Point", "coordinates": [ 174.761107369008585, -41.296566493981011 ] } },
{ "type": "Feature", "properties": { "suburb": "Makara", "trips_godutch": 474.6, "trips_census": 62.14, "pct_all_ages": 0.68, "pct_confident": 17.12, "trips_to_cbd": 56.49, "pct_cbd_all_ages": 0.0, "unconnected_trips": 284.25, "median_effort_km": 24.51, "median_dist_km": 15.11, "n_homes": 62, "blocker1": "Makara Road", "blocker1_trips": 233.01, "blocker2": "Allington Road", "blocker2_trips": 211.98, "blocker3": "Karori Road", "blocker3_trips": 209.61, "project1": "Karori Road", "project1_treatment": "Protected lane", "project1_cost_m": 0.36, "project1_rank": 44.0, "project2": "", "project2_treatment": "", "project2_cost_m": null, "project2_rank": null, "project3": "", "project3_treatment": "", "project3_cost_m": null, "project3_rank": null, "card": "1% of potential trips from Makara (475 a weekday) have an all-ages route; 17% do for confident riders, and 0% of trips to the CBD do. The main blockers are Makara Road, Allington Road and Karori Road. Best-value fixes: Karori Road (protected lane, about $0.36M)." }, "geometry": { "type": "Point", "coordinates": [ 174.653163586536948, -41.289577608094959 ] } },
{ "type": "Feature", "properties": { "suburb": "Northland", "trips_godutch": 464.88, "trips_census": 77.58, "pct_all_ages": 5.59, "pct_confident": 15.3, "trips_to_cbd": 52.48, "pct_cbd_all_ages": 20.67, "unconnected_trips": 421.17, "median_effort_km": 11.54, "median_dist_km": 8.46, "n_homes": 51, "blocker1": "Orangi Kaupapa Road", "blocker1_trips": 263.57, "blocker2": "Garden Road", "blocker2_trips": 228.34, "blocker3": "Tinakori Road", "blocker3_trips": 179.41, "project1": "Garden Road", "project1_treatment": "Quiet street (30 km/h + filter)", "project1_cost_m": 0.18, "project1_rank": 16.0, "project2": "The Rigi", "project2_treatment": "Quiet street (30 km/h + filter)", "project2_cost_m": 0.08, "project2_rank": 22.0, "project3": "Glenmore Street", "project3_treatment": "Protected lane", "project3_cost_m": 0.28, "project3_rank": 48.0, "card": "6% of potential trips from Northland (465 a weekday) have an all-ages route; 15% do for confident riders, and 21% of trips to the CBD do. The main blockers are Orangi Kaupapa Road, Garden Road and Tinakori Road. Best-value fixes: Garden Road (quiet street (30 km/h + filter), about $0.18M); The Rigi (quiet street (30 km/h + filter), about $0.08M); Glenmore Street (protected lane, about $0.28M)." }, "geometry": { "type": "Point", "coordinates": [ 174.764490361059785, -41.274873514910446 ] } },
{ "type": "Feature", "properties": { "suburb": "Crofton Downs", "trips_godutch": 407.45, "trips_census": 70.21, "pct_all_ages": 0.04, "pct_confident": 1.56, "trips_to_cbd": 64.05, "pct_cbd_all_ages": 0.0, "unconnected_trips": 389.03, "median_effort_km": 12.46, "median_dist_km": 7.79, "n_homes": 43, "blocker1": "Churchill Drive", "blocker1_trips": 481.72, "blocker2": "Waikowhai Street", "blocker2_trips": 183.76, "blocker3": "Chartwell Drive", "blocker3_trips": 162.1, "project1": "Wilton Road", "project1_treatment": "Protected lane", "project1_cost_m": 3.83, "project1_rank": 176.0, "project2": "Churchill Drive", "project2_treatment": "Protected lane", "project2_cost_m": 0.99, "project2_rank": 187.0, "project3": "Wadestown Road", "project3_treatment": "Protected lane", "project3_cost_m": 3.29, "project3_rank": 194.0, "card": "0% of potential trips from Crofton Downs (407 a weekday) have an all-ages route; 2% do for confident riders, and 0% of trips to the CBD do. The main blockers are Churchill Drive, Waikowhai Street and Chartwell Drive. Best-value fixes: Wilton Road (protected lane, about $3.8M); Churchill Drive (protected lane, about $0.99M); Wadestown Road (protected lane, about $3.3M)." }, "geometry": { "type": "Point", "coordinates": [ 174.757819720514277, -41.254756650562889 ] } },
{ "type": "Feature", "properties": { "suburb": "Karaka Bays", "trips_godutch": 311.78, "trips_census": 24.39, "pct_all_ages": 0.8, "pct_confident": 10.52, "trips_to_cbd": 10.75, "pct_cbd_all_ages": 0.0, "unconnected_trips": 167.56, "median_effort_km": 23.53, "median_dist_km": 16.3, "n_homes": 47, "blocker1": "Tauhinu Road", "blocker1_trips": 153.64, "blocker2": "Cobham Dr to Rongotai Cycleway", "blocker2_trips": 145.69, "blocker3": "Wellington Road", "blocker3_trips": 145.37, "project1": "Wellington Road", "project1_treatment": "Protected lane (state highway, NZTA)", "project1_cost_m": 1.89, "project1_rank": 79.0, "project2": "Marine Parade", "project2_treatment": "Quiet street (30 km/h + filter)", "project2_cost_m": 0.25, "project2_rank": 86.0, "project3": "Massey Road", "project3_treatment": "Quiet street (30 km/h + filter)", "project3_cost_m": 0.62, "project3_rank": 106.0, "card": "1% of potential trips from Karaka Bays (312 a weekday) have an all-ages route; 11% do for confident riders. The main blockers are Tauhinu Road, Cobham Dr to Rongotai Cycleway and Wellington Road. Best-value fixes: Wellington Road (protected lane (state highway, nzta), about $1.9M); Marine Parade (quiet street (30 km/h + filter), about $0.25M); Massey Road (quiet street (30 km/h + filter), about $0.62M)." }, "geometry": { "type": "Point", "coordinates": [ 174.829909831448646, -41.29790703508224 ] } },
{ "type": "Feature", "properties": { "suburb": "Woodridge", "trips_godutch": 283.78, "trips_census": 46.39, "pct_all_ages": 0.7, "pct_confident": 7.39, "trips_to_cbd": 27.39, "pct_cbd_all_ages": 0.0, "unconnected_trips": 267.29, "median_effort_km": 13.83, "median_dist_km": 11.07, "n_homes": 48, "blocker1": "Woodridge Drive", "blocker1_trips": 219.8, "blocker2": "Horokiwi Road West", "blocker2_trips": 200.93, "blocker3": "Newlands Road", "blocker3_trips": 162.87, "project1": "Newlands Road", "project1_treatment": "Protected lane", "project1_cost_m": 2.43, "project1_rank": 162.0, "project2": "Woodridge Drive", "project2_treatment": "Protected lane", "project2_cost_m": 1.37, "project2_rank": 181.0, "project3": "Horokiwi Road West", "project3_treatment": "Protected lane", "project3_cost_m": 1.23, "project3_rank": 206.0, "card": "1% of potential trips from Woodridge (284 a weekday) have an all-ages route; 7% do for confident riders. The main blockers are Woodridge Drive, Horokiwi Road West and Newlands Road. Best-value fixes: Newlands Road (protected lane, about $2.4M); Woodridge Drive (protected lane, about $1.4M); Horokiwi Road West (protected lane, about $1.2M)." }, "geometry": { "type": "Point", "coordinates": [ 174.83998237253013, -41.217103130797256 ] } },
{ "type": "Feature", "properties": { "suburb": "Melrose", "trips_godutch": 270.5, "trips_census": 47.7, "pct_all_ages": 0.02, "pct_confident": 12.47, "trips_to_cbd": 48.87, "pct_cbd_all_ages": 0.0, "unconnected_trips": 252.72, "median_effort_km": 9.09, "median_dist_km": 6.79, "n_homes": 38, "blocker1": "Manchester Street", "blocker1_trips": 192.04, "blocker2": "Riddiford Street", "blocker2_trips": 186.58, "blocker3": "Newtown to City Cycleway", "blocker3_trips": 178.91, "project1": "Freyberg Street", "project1_treatment": "Quiet street (30 km/h + filter)", "project1_cost_m": 0.16, "project1_rank": 15.0, "project2": "Sutherland Road", "project2_treatment": "Quiet street (30 km/h + filter)", "project2_cost_m": 0.32, "project2_rank": 70.0, "project3": "Queens Drive", "project3_treatment": "Protected lane", "project3_cost_m": 4.72, "project3_rank": 103.0, "card": "0% of potential trips from Melrose (270 a weekday) have an all-ages route; 12% do for confident riders. The main blockers are Manchester Street, Riddiford Street and Newtown to City Cycleway. Best-value fixes: Freyberg Street (quiet street (30 km/h + filter), about $0.16M); Sutherland Road (quiet street (30 km/h + filter), about $0.32M); Queens Drive (protected lane, about $4.7M)." }, "geometry": { "type": "Point", "coordinates": [ 174.788769208104043, -41.320560202193278 ] } },
{ "type": "Feature", "properties": { "suburb": "Moa Point", "trips_godutch": 251.19, "trips_census": 25.46, "pct_all_ages": 0.0, "pct_confident": 24.43, "trips_to_cbd": 51.28, "pct_cbd_all_ages": 0.0, "unconnected_trips": 242.4, "median_effort_km": 12.61, "median_dist_km": 9.37, "n_homes": 25, "blocker1": "Coutts Street", "blocker1_trips": 217.74, "blocker2": "Moa Point Road", "blocker2_trips": 183.4, "blocker3": "Tirangi Road", "blocker3_trips": 165.32, "project1": "Moa Point Road", "project1_treatment": "Protected lane", "project1_cost_m": 4.65, "project1_rank": 154.0, "project2": "Coutts Street", "project2_treatment": "Quiet street (30 km/h + filter)", "project2_cost_m": 0.05, "project2_rank": 235.0, "project3": "Stewart Duff Drive", "project3_treatment": "Quiet street (30 km/h + filter)", "project3_cost_m": 0.34, "project3_rank": 288.0, "card": "0% of potential trips from Moa Point (251 a weekday) have an all-ages route; 24% do for confident riders, and 0% of trips to the CBD do. The main blockers are Coutts Street, Moa Point Road and Tirangi Road. Best-value fixes: Moa Point Road (protected lane, about $4.7M); Coutts Street (quiet street (30 km/h + filter), about $0.05M); Stewart Duff Drive (quiet street (30 km/h + filter), about $0.34M)." }, "geometry": { "type": "Point", "coordinates": [ 174.811418307730918, -41.336683386646378 ] } },
{ "type": "Feature", "properties": { "suburb": "Broadmeadows", "trips_godutch": 246.68, "trips_census": 37.26, "pct_all_ages": 0.01, "pct_confident": 15.86, "trips_to_cbd": 32.13, "pct_cbd_all_ages": 0.0, "unconnected_trips": 237.58, "median_effort_km": 11.94, "median_dist_km": 9.49, "n_homes": 28, "blocker1": "Burma Road", "blocker1_trips": 180.42, "blocker2": "John Sims Drive", "blocker2_trips": 172.36, "blocker3": "Cashmere Avenue", "blocker3_trips": 112.91, "project1": "Burma Road", "project1_treatment": "Protected lane", "project1_cost_m": 2.44, "project1_rank": 100.0, "project2": "Cashmere Avenue", "project2_treatment": "Protected lane", "project2_cost_m": 1.91, "project2_rank": 153.0, "project3": "Omar Street", "project3_treatment": "Quiet street (30 km/h + filter)", "project3_cost_m": 0.05, "project3_rank": 192.0, "card": "0% of potential trips from Broadmeadows (247 a weekday) have an all-ages route; 16% do for confident riders. The main blockers are Burma Road, John Sims Drive and Cashmere Avenue. Best-value fixes: Burma Road (protected lane, about $2.4M); Cashmere Avenue (protected lane, about $1.9M); Omar Street (quiet street (30 km/h + filter), about $0.05M)." }, "geometry": { "type": "Point", "coordinates": [ 174.790377685197939, -41.235154059042642 ] } },
{ "type": "Feature", "properties": { "suburb": "Roseneath", "trips_godutch": 217.6, "trips_census": 60.76, "pct_all_ages": 15.03, "pct_confident": 39.28, "trips_to_cbd": 34.87, "pct_cbd_all_ages": 50.89, "unconnected_trips": 175.3, "median_effort_km": 9.76, "median_dist_km": 7.09, "n_homes": 22, "blocker1": "Wakefield Street", "blocker1_trips": 101.47, "blocker2": "Jervois Quay", "blocker2_trips": 99.96, "blocker3": "Customhouse Quay", "blocker3_trips": 94.82, "project1": "Wakefield Street", "project1_treatment": "Protected lane", "project1_cost_m": 1.42, "project1_rank": 18.0, "project2": "Jervois Quay", "project2_treatment": "Protected lane", "project2_cost_m": 1.94, "project2_rank": 21.0, "project3": "Alexandra Road", "project3_treatment": "Quiet street (30 km/h + filter)", "project3_cost_m": 0.53, "project3_rank": 47.0, "card": "15% of potential trips from Roseneath (218 a weekday) have an all-ages route; 39% do for confident riders. The main blockers are Wakefield Street, Jervois Quay and Customhouse Quay. Best-value fixes: Wakefield Street (protected lane, about $1.4M); Jervois Quay (protected lane, about $1.9M); Alexandra Road (quiet street (30 km/h + filter), about $0.53M)." }, "geometry": { "type": "Point", "coordinates": [ 174.803127695208445, -41.294964304041883 ] } },
{ "type": "Feature", "properties": { "suburb": "Oriental Bay", "trips_godutch": 215.61, "trips_census": 37.37, "pct_all_ages": 21.41, "pct_confident": 46.43, "trips_to_cbd": 41.95, "pct_cbd_all_ages": 58.32, "unconnected_trips": 162.17, "median_effort_km": 8.47, "median_dist_km": 5.65, "n_homes": 27, "blocker1": "Waterloo Quay", "blocker1_trips": 73.83, "blocker2": "Wakefield Street", "blocker2_trips": 71.58, "blocker3": "Aotea Quay", "blocker3_trips": 70.1, "project1": "Wakefield Street", "project1_treatment": "Protected lane", "project1_cost_m": 1.42, "project1_rank": 18.0, "project2": "Chaffers Street", "project2_treatment": "Protected lane", "project2_cost_m": 0.25, "project2_rank": 60.0, "project3": "Courtenay Place", "project3_treatment": "Protected lane", "project3_cost_m": 1.44, "project3_rank": 84.0, "card": "21% of potential trips from Oriental Bay (216 a weekday) have an all-ages route; 46% do for confident riders. The main blockers are Waterloo Quay, Wakefield Street and Aotea Quay. Best-value fixes: Wakefield Street (protected lane, about $1.4M); Chaffers Street (protected lane, about $0.25M); Courtenay Place (protected lane, about $1.4M)." }, "geometry": { "type": "Point", "coordinates": [ 174.796538386950147, -41.291456693414439 ] } }
]
}
